<?xml version="1.0" encoding="UTF-8"?>
<kml xmlns="http://www.opengis.net/kml/2.2">
  <Document id="root_doc">
    <Schema id="Distrito_TAVA__.schema">
      <SimpleField name="CÈdula" type="double"/>
      <SimpleField name="cedula" type="string"/>
      <SimpleField name="N_" type="double"/>
      <SimpleField name="Nombres_y_" type="string"/>
      <SimpleField name="Sexo" type="string"/>
      <SimpleField name="Cambio_de_" type="string"/>
      <SimpleField name="Titular_se" type="string"/>
      <SimpleField name="CÈdula_Ti" type="string"/>
      <SimpleField name="SituaciÛn" type="string"/>
      <SimpleField name="Comunidad" type="string"/>
      <SimpleField name="Modelo_imp" type="string"/>
      <SimpleField name="Departamen" type="string"/>
      <SimpleField name="Distrito" type="string"/>
      <SimpleField name="Localidad" type="string"/>
      <SimpleField name="TelÈfono" type="string"/>
      <SimpleField name="Vivienda_L" type="double"/>
      <SimpleField name="Vivienda_1" type="double"/>
      <SimpleField name="Superficie" type="double"/>
      <SimpleField name="Situaci_1" type="string"/>
      <SimpleField name="Plantado" type="string"/>
      <SimpleField name="Parcela_La" type="double"/>
      <SimpleField name="Parcela_Lo" type="double"/>
      <SimpleField name="Grupo_Impl" type="string"/>
      <SimpleField name="Grupo_de_P" type="string"/>
      <SimpleField name="Jornales" type="double"/>
      <SimpleField name="Monto" type="double"/>
      <SimpleField name="Estado_del" type="string"/>
      <SimpleField name="Empresa" type="string"/>
      <SimpleField name="Lote" type="string"/>
      <SimpleField name="Fecha_de_M" type="string"/>
      <SimpleField name="F__de_pren" type="string"/>
      <SimpleField name="Estado_FAO" type="string"/>
      <SimpleField name="Etapa_de_i" type="string"/>
      <SimpleField name="Fecha_visi" type="string"/>
      <SimpleField name="Cumple_sup" type="string"/>
      <SimpleField name="Estado_mon" type="string"/>
      <SimpleField name="Situaci_12" type="string"/>
      <SimpleField name="Observaci" type="string"/>
      <SimpleField name="Dias_trans" type="double"/>
      <SimpleField name="Prioridad" type="string"/>
    </Schema>
    <Document id="Distrito_TAVA__">
      <name>Distrito_TAVA√ç</name>
      <Placemark id="Distrito_TAVA__.1">
        <ExtendedData>
          <SchemaData schemaUrl="#Distrito_TAVA__.schema">
            <SimpleData name="CÈdula">7011500.00000000000</SimpleData>
            <SimpleData name="cedula">7011500</SimpleData>
            <SimpleData name="N_">9654.00000000000</SimpleData>
            <SimpleData name="Nombres_y_">SONIA ELIZABETH  FLORES ROTELA</SimpleData>
            <SimpleData name="Sexo">Mujer</SimpleData>
            <SimpleData name="Cambio_de_">NO</SimpleData>
            <SimpleData name="Titular_se">NO</SimpleData>
            <SimpleData name="SituaciÛn">NO</SimpleData>
            <SimpleData name="Comunidad">Campesina</SimpleData>
            <SimpleData name="Modelo_imp">Modelo 1</SimpleData>
            <SimpleData name="Departamen">CAAZAPA</SimpleData>
            <SimpleData name="Distrito">TAVA?</SimpleData>
            <SimpleData name="Localidad">SAN FRANCISCO</SimpleData>
            <SimpleData name="TelÈfono">976433429</SimpleData>
            <SimpleData name="Vivienda_L">-26.16117830000</SimpleData>
            <SimpleData name="Vivienda_1">-55.56416000000</SimpleData>
            <SimpleData name="Superficie">0.80000000000</SimpleData>
            <SimpleData name="Situaci_1">Pol?gono</SimpleData>
            <SimpleData name="Plantado">Si</SimpleData>
            <SimpleData name="Parcela_La">-26.15673759000</SimpleData>
            <SimpleData name="Parcela_Lo">-55.56287221000</SimpleData>
            <SimpleData name="Grupo_Impl">G2</SimpleData>
            <SimpleData name="Grupo_de_P">A-P4-XX-XX-XX</SimpleData>
            <SimpleData name="Jornales">0.00000000000</SimpleData>
            <SimpleData name="Monto">0.00000000000</SimpleData>
            <SimpleData name="Estado_del">Activo</SimpleData>
            <SimpleData name="Empresa">Red Forestal Paraguay SA</SimpleData>
            <SimpleData name="Lote">A</SimpleData>
            <SimpleData name="Fecha_de_M">-</SimpleData>
            <SimpleData name="F__de_pren">-</SimpleData>
            <SimpleData name="Estado_FAO">Monitorear</SimpleData>
            <SimpleData name="Etapa_de_i">Mantenimiento A?o 1.1</SimpleData>
            <SimpleData name="Fecha_visi">2026/09/01</SimpleData>
            <SimpleData name="Cumple_sup">Si</SimpleData>
            <SimpleData name="Estado_mon">-</SimpleData>
            <SimpleData name="Situaci_12">-</SimpleData>
            <SimpleData name="Observaci">-</SimpleData>
            <SimpleData name="Dias_trans">19.22215277780</SimpleData>
            <SimpleData name="Prioridad">ALTA</SimpleData>
          </SchemaData>
        </ExtendedData>
        <Polygon>
          <outerBoundaryIs>
            <LinearRing>
              <coordinates>
                -55.5624316993886,-26.1561399994184,0
                -55.5627566996744,-26.1574750003563,0
                -55.5633105003554,-26.1573098995936,0
                -55.5629967001878,-26.1560232999917,0
                -55.5624316993886,-26.1561399994184,0
              </coordinates>
            </LinearRing>
          </outerBoundaryIs>
        </Polygon>
      </Placemark>
      <Placemark id="Distrito_TAVA__.2">
        <ExtendedData>
          <SchemaData schemaUrl="#Distrito_TAVA__.schema">
            <SimpleData name="CÈdula">6580474.00000000000</SimpleData>
            <SimpleData name="cedula">6580474</SimpleData>
            <SimpleData name="N_">3672.00000000000</SimpleData>
            <SimpleData name="Nombres_y_">YONI CESAR FERNANDEZ DIAZ</SimpleData>
            <SimpleData name="Sexo">Hombre</SimpleData>
            <SimpleData name="Cambio_de_">NO</SimpleData>
            <SimpleData name="Titular_se">NO</SimpleData>
            <SimpleData name="SituaciÛn">NO</SimpleData>
            <SimpleData name="Comunidad">Ind?gena</SimpleData>
            <SimpleData name="Modelo_imp">Modelo 4</SimpleData>
            <SimpleData name="Departamen">CAAZAPA</SimpleData>
            <SimpleData name="Distrito">TAVA?</SimpleData>
            <SimpleData name="Localidad">COM INDIG KOKUERE GUASU</SimpleData>
            <SimpleData name="TelÈfono">0984023221</SimpleData>
            <SimpleData name="Vivienda_L">-26.06178420000</SimpleData>
            <SimpleData name="Vivienda_1">-55.51293920000</SimpleData>
            <SimpleData name="Superficie">0.70000000000</SimpleData>
            <SimpleData name="Situaci_1">Par?metro</SimpleData>
            <SimpleData name="Plantado">Si</SimpleData>
            <SimpleData name="Parcela_La">-26.06290543000</SimpleData>
            <SimpleData name="Parcela_Lo">-55.51269577000</SimpleData>
            <SimpleData name="Grupo_Impl">G2</SimpleData>
            <SimpleData name="Grupo_de_P">A-P4-XX-XX-XX</SimpleData>
            <SimpleData name="Jornales">0.00000000000</SimpleData>
            <SimpleData name="Monto">0.00000000000</SimpleData>
            <SimpleData name="Estado_del">Activo</SimpleData>
            <SimpleData name="Empresa">Red Forestal Paraguay SA</SimpleData>
            <SimpleData name="Lote">A</SimpleData>
            <SimpleData name="Fecha_de_M">-</SimpleData>
            <SimpleData name="F__de_pren">-</SimpleData>
            <SimpleData name="Estado_FAO">Monitorear</SimpleData>
            <SimpleData name="Etapa_de_i">Mantenimiento A?o 1.1</SimpleData>
            <SimpleData name="Fecha_visi">2026/09/09</SimpleData>
            <SimpleData name="Cumple_sup">Si</SimpleData>
            <SimpleData name="Estado_mon">-</SimpleData>
            <SimpleData name="Situaci_12">-</SimpleData>
            <SimpleData name="Observaci">-</SimpleData>
            <SimpleData name="Dias_trans">11.32267361110</SimpleData>
            <SimpleData name="Prioridad">ALTA</SimpleData>
          </SchemaData>
        </ExtendedData>
        <Polygon>
          <outerBoundaryIs>
            <LinearRing>
              <coordinates>
                -55.5120366999119,-26.0625749996369,0
                -55.5127332999775,-26.0637183000181,0
                -55.5131950003113,-26.0632632995643,0
                -55.5129533004055,-26.0622066993497,0
                -55.5120366999119,-26.0625749996369,0
              </coordinates>
            </LinearRing>
          </outerBoundaryIs>
        </Polygon>
      </Placemark>
      <Placemark id="Distrito_TAVA__.3">
        <ExtendedData>
          <SchemaData schemaUrl="#Distrito_TAVA__.schema">
            <SimpleData name="CÈdula">7495240.00000000000</SimpleData>
            <SimpleData name="cedula">7495240</SimpleData>
            <SimpleData name="N_">3669.00000000000</SimpleData>
            <SimpleData name="Nombres_y_">MIRIAN FERNANDEZ VERA</SimpleData>
            <SimpleData name="Sexo">Mujer</SimpleData>
            <SimpleData name="Cambio_de_">NO</SimpleData>
            <SimpleData name="Titular_se">NO</SimpleData>
            <SimpleData name="SituaciÛn">NO</SimpleData>
            <SimpleData name="Comunidad">Ind?gena</SimpleData>
            <SimpleData name="Modelo_imp">Modelo 4</SimpleData>
            <SimpleData name="Departamen">CAAZAPA</SimpleData>
            <SimpleData name="Distrito">TAVA?</SimpleData>
            <SimpleData name="Localidad">COM INDIG KOKUERE GUASU</SimpleData>
            <SimpleData name="TelÈfono">0984380336</SimpleData>
            <SimpleData name="Vivienda_L">-26.06172030000</SimpleData>
            <SimpleData name="Vivienda_1">-55.51306180000</SimpleData>
            <SimpleData name="Superficie">0.70000000000</SimpleData>
            <SimpleData name="Situaci_1">Par?metro</SimpleData>
            <SimpleData name="Plantado">Si</SimpleData>
            <SimpleData name="Parcela_La">-26.06128904000</SimpleData>
            <SimpleData name="Parcela_Lo">-55.51231178000</SimpleData>
            <SimpleData name="Grupo_Impl">G2</SimpleData>
            <SimpleData name="Grupo_de_P">A-P4-XX-XX-XX</SimpleData>
            <SimpleData name="Jornales">0.00000000000</SimpleData>
            <SimpleData name="Monto">0.00000000000</SimpleData>
            <SimpleData name="Estado_del">Activo</SimpleData>
            <SimpleData name="Empresa">Red Forestal Paraguay SA</SimpleData>
            <SimpleData name="Lote">A</SimpleData>
            <SimpleData name="Fecha_de_M">-</SimpleData>
            <SimpleData name="F__de_pren">-</SimpleData>
            <SimpleData name="Estado_FAO">Monitorear</SimpleData>
            <SimpleData name="Etapa_de_i">Mantenimiento A?o 1.1</SimpleData>
            <SimpleData name="Fecha_visi">2026/09/09</SimpleData>
            <SimpleData name="Cumple_sup">Si</SimpleData>
            <SimpleData name="Estado_mon">-</SimpleData>
            <SimpleData name="Situaci_12">-</SimpleData>
            <SimpleData name="Observaci">-</SimpleData>
            <SimpleData name="Dias_trans">11.32261574070</SimpleData>
            <SimpleData name="Prioridad">ALTA</SimpleData>
          </SchemaData>
        </ExtendedData>
        <Polygon>
          <outerBoundaryIs>
            <LinearRing>
              <coordinates>
                -55.5117883005383,-26.0610050004491,0
                -55.5123933002324,-26.0619899998128,0
                -55.5127649999353,-26.0615066994608,0
                -55.5123699998947,-26.0606750000787,0
                -55.5117883005383,-26.0610050004491,0
              </coordinates>
            </LinearRing>
          </outerBoundaryIs>
        </Polygon>
      </Placemark>
      <Placemark id="Distrito_TAVA__.4">
        <ExtendedData>
          <SchemaData schemaUrl="#Distrito_TAVA__.schema">
            <SimpleData name="CÈdula">5452923.00000000000</SimpleData>
            <SimpleData name="cedula">5452923</SimpleData>
            <SimpleData name="N_">3708.00000000000</SimpleData>
            <SimpleData name="Nombres_y_">CLAUDIO BENITEZ GARAY</SimpleData>
            <SimpleData name="Sexo">Hombre</SimpleData>
            <SimpleData name="Cambio_de_">NO</SimpleData>
            <SimpleData name="Titular_se">NO</SimpleData>
            <SimpleData name="SituaciÛn">NO</SimpleData>
            <SimpleData name="Comunidad">Ind?gena</SimpleData>
            <SimpleData name="Modelo_imp">Modelo 4</SimpleData>
            <SimpleData name="Departamen">CAAZAPA</SimpleData>
            <SimpleData name="Distrito">TAVA?</SimpleData>
            <SimpleData name="Localidad">COM INDIG KOKUERE GUASU</SimpleData>
            <SimpleData name="TelÈfono">0982789644</SimpleData>
            <SimpleData name="Vivienda_L">-26.05979670000</SimpleData>
            <SimpleData name="Vivienda_1">-55.50257170000</SimpleData>
            <SimpleData name="Superficie">0.70000000000</SimpleData>
            <SimpleData name="Situaci_1">Par?metro</SimpleData>
            <SimpleData name="Plantado">Si</SimpleData>
            <SimpleData name="Parcela_La">-26.06405832000</SimpleData>
            <SimpleData name="Parcela_Lo">-55.50186833000</SimpleData>
            <SimpleData name="Grupo_Impl">G2</SimpleData>
            <SimpleData name="Grupo_de_P">A-P4-XX-XX-XX</SimpleData>
            <SimpleData name="Jornales">0.00000000000</SimpleData>
            <SimpleData name="Monto">0.00000000000</SimpleData>
            <SimpleData name="Estado_del">Activo</SimpleData>
            <SimpleData name="Empresa">Red Forestal Paraguay SA</SimpleData>
            <SimpleData name="Lote">A</SimpleData>
            <SimpleData name="Fecha_de_M">-</SimpleData>
            <SimpleData name="F__de_pren">-</SimpleData>
            <SimpleData name="Estado_FAO">Monitorear</SimpleData>
            <SimpleData name="Etapa_de_i">Mantenimiento A?o 1.1</SimpleData>
            <SimpleData name="Fecha_visi">2026/09/08</SimpleData>
            <SimpleData name="Cumple_sup">Si</SimpleData>
            <SimpleData name="Estado_mon">-</SimpleData>
            <SimpleData name="Situaci_12">-</SimpleData>
            <SimpleData name="Observaci">-</SimpleData>
            <SimpleData name="Dias_trans">12.20660879630</SimpleData>
            <SimpleData name="Prioridad">ALTA</SimpleData>
          </SchemaData>
        </ExtendedData>
        <Polygon>
          <outerBoundaryIs>
            <LinearRing>
              <coordinates>
                -55.5015017004656,-26.0644783001481,0
                -55.5023250001987,-26.0645498999371,0
                -55.5021683004544,-26.0636683000904,0
                -55.5015149997825,-26.0634666999622,0
                -55.5015017004656,-26.0644783001481,0
              </coordinates>
            </LinearRing>
          </outerBoundaryIs>
        </Polygon>
      </Placemark>
      <Placemark id="Distrito_TAVA__.5">
        <ExtendedData>
          <SchemaData schemaUrl="#Distrito_TAVA__.schema">
            <SimpleData name="CÈdula">6511846.00000000000</SimpleData>
            <SimpleData name="cedula">6511846</SimpleData>
            <SimpleData name="N_">4150.00000000000</SimpleData>
            <SimpleData name="Nombres_y_">ANTOLIN DIEGO FERNANDEZ GONZALEZ</SimpleData>
            <SimpleData name="Sexo">Hombre</SimpleData>
            <SimpleData name="Cambio_de_">NO</SimpleData>
            <SimpleData name="Titular_se">NO</SimpleData>
            <SimpleData name="SituaciÛn">NO</SimpleData>
            <SimpleData name="Comunidad">Ind?gena</SimpleData>
            <SimpleData name="Modelo_imp">Modelo 4</SimpleData>
            <SimpleData name="Departamen">CAAZAPA</SimpleData>
            <SimpleData name="Distrito">TAVA?</SimpleData>
            <SimpleData name="Localidad">COM INDIG KOKUERE GUAZU 6TA LINEA</SimpleData>
            <SimpleData name="TelÈfono">ND</SimpleData>
            <SimpleData name="Vivienda_L">-26.03181640000</SimpleData>
            <SimpleData name="Vivienda_1">-55.51643910000</SimpleData>
            <SimpleData name="Superficie">0.70000000000</SimpleData>
            <SimpleData name="Situaci_1">Par?metro</SimpleData>
            <SimpleData name="Plantado">Si</SimpleData>
            <SimpleData name="Parcela_La">-26.06491279000</SimpleData>
            <SimpleData name="Parcela_Lo">-55.51359146000</SimpleData>
            <SimpleData name="Grupo_Impl">G2</SimpleData>
            <SimpleData name="Grupo_de_P">A-P4-XX-XX-XX</SimpleData>
            <SimpleData name="Jornales">0.00000000000</SimpleData>
            <SimpleData name="Monto">0.00000000000</SimpleData>
            <SimpleData name="Estado_del">Activo</SimpleData>
            <SimpleData name="Empresa">Red Forestal Paraguay SA</SimpleData>
            <SimpleData name="Lote">A</SimpleData>
            <SimpleData name="Fecha_de_M">-</SimpleData>
            <SimpleData name="F__de_pren">-</SimpleData>
            <SimpleData name="Estado_FAO">Monitorear</SimpleData>
            <SimpleData name="Etapa_de_i">Mantenimiento A?o 1.1</SimpleData>
            <SimpleData name="Fecha_visi">2026/09/09</SimpleData>
            <SimpleData name="Cumple_sup">Si</SimpleData>
            <SimpleData name="Estado_mon">-</SimpleData>
            <SimpleData name="Situaci_12">-</SimpleData>
            <SimpleData name="Observaci">-</SimpleData>
            <SimpleData name="Dias_trans">11.32262731480</SimpleData>
            <SimpleData name="Prioridad">ALTA</SimpleData>
          </SchemaData>
        </ExtendedData>
        <Polygon>
          <outerBoundaryIs>
            <LinearRing>
              <coordinates>
                -55.5130649999519,-26.0648432993938,0
                -55.5133666999048,-26.0654783004327,0
                -55.5142063000934,-26.0649720001126,0
                -55.5136466994806,-26.0643382994983,0
                -55.5130649999519,-26.0648432993938,0
              </coordinates>
            </LinearRing>
          </outerBoundaryIs>
        </Polygon>
      </Placemark>
      <Placemark id="Distrito_TAVA__.6">
        <ExtendedData>
          <SchemaData schemaUrl="#Distrito_TAVA__.schema">
            <SimpleData name="CÈdula">6776884.00000000000</SimpleData>
            <SimpleData name="cedula">6776884</SimpleData>
            <SimpleData name="N_">3703.00000000000</SimpleData>
            <SimpleData name="Nombres_y_">SERGIO CABRAL OCAMPOS</SimpleData>
            <SimpleData name="Sexo">Hombre</SimpleData>
            <SimpleData name="Cambio_de_">NO</SimpleData>
            <SimpleData name="Titular_se">NO</SimpleData>
            <SimpleData name="SituaciÛn">NO</SimpleData>
            <SimpleData name="Comunidad">Ind?gena</SimpleData>
            <SimpleData name="Modelo_imp">Modelo 4</SimpleData>
            <SimpleData name="Departamen">CAAZAPA</SimpleData>
            <SimpleData name="Distrito">TAVA?</SimpleData>
            <SimpleData name="Localidad">COM INDIG KOKUERE GUASU</SimpleData>
            <SimpleData name="TelÈfono">0984175920</SimpleData>
            <SimpleData name="Vivienda_L">-26.05966930000</SimpleData>
            <SimpleData name="Vivienda_1">-55.51467830000</SimpleData>
            <SimpleData name="Superficie">0.70000000000</SimpleData>
            <SimpleData name="Situaci_1">Par?metro</SimpleData>
            <SimpleData name="Plantado">Si</SimpleData>
            <SimpleData name="Parcela_La">-26.06412516000</SimpleData>
            <SimpleData name="Parcela_Lo">-55.51304321000</SimpleData>
            <SimpleData name="Grupo_Impl">G2</SimpleData>
            <SimpleData name="Grupo_de_P">A-P4-XX-XX-XX</SimpleData>
            <SimpleData name="Jornales">0.00000000000</SimpleData>
            <SimpleData name="Monto">0.00000000000</SimpleData>
            <SimpleData name="Estado_del">Activo</SimpleData>
            <SimpleData name="Empresa">Red Forestal Paraguay SA</SimpleData>
            <SimpleData name="Lote">A</SimpleData>
            <SimpleData name="Fecha_de_M">-</SimpleData>
            <SimpleData name="F__de_pren">-</SimpleData>
            <SimpleData name="Estado_FAO">Monitorear</SimpleData>
            <SimpleData name="Etapa_de_i">Mantenimiento A?o 1.1</SimpleData>
            <SimpleData name="Fecha_visi">2026/09/09</SimpleData>
            <SimpleData name="Cumple_sup">Si</SimpleData>
            <SimpleData name="Estado_mon">-</SimpleData>
            <SimpleData name="Situaci_12">-</SimpleData>
            <SimpleData name="Observaci">-</SimpleData>
            <SimpleData name="Dias_trans">11.32265046300</SimpleData>
            <SimpleData name="Prioridad">ALTA</SimpleData>
          </SchemaData>
        </ExtendedData>
        <Polygon>
          <outerBoundaryIs>
            <LinearRing>
              <coordinates>
                -55.5124932999318,-26.0640567006654,0
                -55.5129899998793,-26.0646882995487,0
                -55.5135583001345,-26.064294999601,0
                -55.5131449994813,-26.063518299455,0
                -55.5124932999318,-26.0640567006654,0
              </coordinates>
            </LinearRing>
          </outerBoundaryIs>
        </Polygon>
      </Placemark>
      <Placemark id="Distrito_TAVA__.7">
        <ExtendedData>
          <SchemaData schemaUrl="#Distrito_TAVA__.schema">
            <SimpleData name="CÈdula">8068699.00000000000</SimpleData>
            <SimpleData name="cedula">8068699</SimpleData>
            <SimpleData name="N_">3783.00000000000</SimpleData>
            <SimpleData name="Nombres_y_">CLAUDIA FERNANDEZ FRANCO</SimpleData>
            <SimpleData name="Sexo">Mujer</SimpleData>
            <SimpleData name="Cambio_de_">NO</SimpleData>
            <SimpleData name="Titular_se">NO</SimpleData>
            <SimpleData name="SituaciÛn">NO</SimpleData>
            <SimpleData name="Comunidad">Ind?gena</SimpleData>
            <SimpleData name="Modelo_imp">Modelo 4</SimpleData>
            <SimpleData name="Departamen">CAAZAPA</SimpleData>
            <SimpleData name="Distrito">TAVA?</SimpleData>
            <SimpleData name="Localidad">COM INDIG KOKUERE GUASU</SimpleData>
            <SimpleData name="TelÈfono">0984816283</SimpleData>
            <SimpleData name="Vivienda_L">-26.06157200000</SimpleData>
            <SimpleData name="Vivienda_1">-55.52085900000</SimpleData>
            <SimpleData name="Superficie">0.70000000000</SimpleData>
            <SimpleData name="Situaci_1">Par?metro</SimpleData>
            <SimpleData name="Plantado">Si</SimpleData>
            <SimpleData name="Parcela_La">-26.06070104000</SimpleData>
            <SimpleData name="Parcela_Lo">-55.52186998000</SimpleData>
            <SimpleData name="Grupo_Impl">G2</SimpleData>
            <SimpleData name="Grupo_de_P">A-P4-XX-XX-XX</SimpleData>
            <SimpleData name="Jornales">0.00000000000</SimpleData>
            <SimpleData name="Monto">0.00000000000</SimpleData>
            <SimpleData name="Estado_del">Activo</SimpleData>
            <SimpleData name="Empresa">Red Forestal Paraguay SA</SimpleData>
            <SimpleData name="Lote">A</SimpleData>
            <SimpleData name="Fecha_de_M">-</SimpleData>
            <SimpleData name="F__de_pren">-</SimpleData>
            <SimpleData name="Estado_FAO">Monitorear</SimpleData>
            <SimpleData name="Etapa_de_i">Mantenimiento A?o 1.1</SimpleData>
            <SimpleData name="Fecha_visi">2026/09/09</SimpleData>
            <SimpleData name="Cumple_sup">Si</SimpleData>
            <SimpleData name="Estado_mon">-</SimpleData>
            <SimpleData name="Situaci_12">-</SimpleData>
            <SimpleData name="Observaci">-</SimpleData>
            <SimpleData name="Dias_trans">11.32269675930</SimpleData>
            <SimpleData name="Prioridad">ALTA</SimpleData>
          </SchemaData>
        </ExtendedData>
        <Polygon>
          <outerBoundaryIs>
            <LinearRing>
              <coordinates>
                -55.5215567000156,-26.0611016996519,0
                -55.5222282999135,-26.0612600007419,0
                -55.5221416993241,-26.0601649997675,0
                -55.5214917006713,-26.0602749994668,0
                -55.5215567000156,-26.0611016996519,0
              </coordinates>
            </LinearRing>
          </outerBoundaryIs>
        </Polygon>
      </Placemark>
      <Placemark id="Distrito_TAVA__.8">
        <ExtendedData>
          <SchemaData schemaUrl="#Distrito_TAVA__.schema">
            <SimpleData name="CÈdula">8397959.00000000000</SimpleData>
            <SimpleData name="cedula">8397959</SimpleData>
            <SimpleData name="N_">3733.00000000000</SimpleData>
            <SimpleData name="Nombres_y_">EDUARDO LOPEZ BENITEZ</SimpleData>
            <SimpleData name="Sexo">Hombre</SimpleData>
            <SimpleData name="Cambio_de_">NO</SimpleData>
            <SimpleData name="Titular_se">NO</SimpleData>
            <SimpleData name="SituaciÛn">NO</SimpleData>
            <SimpleData name="Comunidad">Ind?gena</SimpleData>
            <SimpleData name="Modelo_imp">Modelo 4</SimpleData>
            <SimpleData name="Departamen">CAAZAPA</SimpleData>
            <SimpleData name="Distrito">TAVA?</SimpleData>
            <SimpleData name="Localidad">COM INDIG KOKUERE GUASU</SimpleData>
            <SimpleData name="TelÈfono">0984023221</SimpleData>
            <SimpleData name="Vivienda_L">-26.06242230000</SimpleData>
            <SimpleData name="Vivienda_1">-55.50673660000</SimpleData>
            <SimpleData name="Superficie">0.70000000000</SimpleData>
            <SimpleData name="Situaci_1">Par?metro</SimpleData>
            <SimpleData name="Plantado">Si</SimpleData>
            <SimpleData name="Parcela_La">-26.06343939000</SimpleData>
            <SimpleData name="Parcela_Lo">-55.50816929000</SimpleData>
            <SimpleData name="Grupo_Impl">G2</SimpleData>
            <SimpleData name="Grupo_de_P">A-P4-XX-XX-XX</SimpleData>
            <SimpleData name="Jornales">0.00000000000</SimpleData>
            <SimpleData name="Monto">0.00000000000</SimpleData>
            <SimpleData name="Estado_del">Activo</SimpleData>
            <SimpleData name="Empresa">Red Forestal Paraguay SA</SimpleData>
            <SimpleData name="Lote">A</SimpleData>
            <SimpleData name="Fecha_de_M">-</SimpleData>
            <SimpleData name="F__de_pren">-</SimpleData>
            <SimpleData name="Estado_FAO">Monitorear</SimpleData>
            <SimpleData name="Etapa_de_i">Mantenimiento A?o 1.1</SimpleData>
            <SimpleData name="Fecha_visi">2026/09/09</SimpleData>
            <SimpleData name="Cumple_sup">Si</SimpleData>
            <SimpleData name="Estado_mon">-</SimpleData>
            <SimpleData name="Situaci_12">-</SimpleData>
            <SimpleData name="Observaci">-</SimpleData>
            <SimpleData name="Dias_trans">11.32292824070</SimpleData>
            <SimpleData name="Prioridad">ALTA</SimpleData>
          </SchemaData>
        </ExtendedData>
        <Polygon>
          <outerBoundaryIs>
            <LinearRing>
              <coordinates>
                -55.5078581997481,-26.0638772997372,0
                -55.5085683001285,-26.0640449998845,0
                -55.5085649999807,-26.0628533005077,0
                -55.5075850009159,-26.0631149998125,0
                -55.5078581997481,-26.0638772997372,0
              </coordinates>
            </LinearRing>
          </outerBoundaryIs>
        </Polygon>
      </Placemark>
      <Placemark id="Distrito_TAVA__.9">
        <ExtendedData>
          <SchemaData schemaUrl="#Distrito_TAVA__.schema">
            <SimpleData name="CÈdula">7847696.00000000000</SimpleData>
            <SimpleData name="cedula">7847696</SimpleData>
            <SimpleData name="N_">9752.00000000000</SimpleData>
            <SimpleData name="Nombres_y_">MARIA LILIANA  CENA BENITEZ</SimpleData>
            <SimpleData name="Sexo">Mujer</SimpleData>
            <SimpleData name="Cambio_de_">NO</SimpleData>
            <SimpleData name="Titular_se">NO</SimpleData>
            <SimpleData name="SituaciÛn">NO</SimpleData>
            <SimpleData name="Comunidad">Campesina</SimpleData>
            <SimpleData name="Modelo_imp">Modelo 1</SimpleData>
            <SimpleData name="Departamen">CAAZAPA</SimpleData>
            <SimpleData name="Distrito">TAVA?</SimpleData>
            <SimpleData name="Localidad">SAN FRANCISCO</SimpleData>
            <SimpleData name="TelÈfono">985196687</SimpleData>
            <SimpleData name="Vivienda_L">-26.15169330000</SimpleData>
            <SimpleData name="Vivienda_1">-55.57229330000</SimpleData>
            <SimpleData name="Superficie">0.80000000000</SimpleData>
            <SimpleData name="Situaci_1">Parametro</SimpleData>
            <SimpleData name="Plantado">Si</SimpleData>
            <SimpleData name="Parcela_La">-26.15631295000</SimpleData>
            <SimpleData name="Parcela_Lo">-55.55767956000</SimpleData>
            <SimpleData name="Grupo_Impl">G2</SimpleData>
            <SimpleData name="Grupo_de_P">A-P4-XX-XX-XX</SimpleData>
            <SimpleData name="Jornales">0.00000000000</SimpleData>
            <SimpleData name="Monto">0.00000000000</SimpleData>
            <SimpleData name="Estado_del">Activo</SimpleData>
            <SimpleData name="Empresa">Red Forestal Paraguay SA</SimpleData>
            <SimpleData name="Lote">A</SimpleData>
            <SimpleData name="Fecha_de_M">-</SimpleData>
            <SimpleData name="F__de_pren">-</SimpleData>
            <SimpleData name="Estado_FAO">Monitorear</SimpleData>
            <SimpleData name="Etapa_de_i">Mantenimiento A?o 1.1</SimpleData>
            <SimpleData name="Fecha_visi">2026/09/14</SimpleData>
            <SimpleData name="Cumple_sup">Si</SimpleData>
            <SimpleData name="Estado_mon">-</SimpleData>
            <SimpleData name="Situaci_12">-</SimpleData>
            <SimpleData name="Observaci">-</SimpleData>
            <SimpleData name="Dias_trans">6.57535879630</SimpleData>
            <SimpleData name="Prioridad">ALTA</SimpleData>
          </SchemaData>
        </ExtendedData>
        <Polygon>
          <outerBoundaryIs>
            <LinearRing>
              <coordinates>
                -55.5572268994498,-26.1558619999979,0
                -55.5574849995809,-26.1571749995687,0
                -55.5579266993429,-26.1570449994066,0
                -55.5576682995681,-26.1561232993329,0
                -55.5581899995405,-26.1560949999182,0
                -55.5582332999735,-26.1561499999519,0
                -55.5583716998889,-26.1560766996051,0
                -55.558328299355,-26.1558950000741,0
                -55.5581257997206,-26.1558954993889,0
                -55.558036699735,-26.1556499996678,0
                -55.5572268994498,-26.1558619999979,0
              </coordinates>
            </LinearRing>
          </outerBoundaryIs>
        </Polygon>
      </Placemark>
      <Placemark id="Distrito_TAVA__.10">
        <ExtendedData>
          <SchemaData schemaUrl="#Distrito_TAVA__.schema">
            <SimpleData name="CÈdula">6773669.00000000000</SimpleData>
            <SimpleData name="cedula">6773669</SimpleData>
            <SimpleData name="N_">9946.00000000000</SimpleData>
            <SimpleData name="Nombres_y_">ANTONIA  GIMENEZ MEDINA</SimpleData>
            <SimpleData name="Sexo">Mujer</SimpleData>
            <SimpleData name="Cambio_de_">NO</SimpleData>
            <SimpleData name="Titular_se">NO</SimpleData>
            <SimpleData name="Comunidad">Ind?gena</SimpleData>
            <SimpleData name="Modelo_imp">Modelo 4</SimpleData>
            <SimpleData name="Departamen">CAAZAPA</SimpleData>
            <SimpleData name="Distrito">TAVA?</SimpleData>
            <SimpleData name="Localidad">COM INDIG KOKUERE GUAZU- CENTRO</SimpleData>
            <SimpleData name="TelÈfono">982263545</SimpleData>
            <SimpleData name="Vivienda_L">-26.06049830000</SimpleData>
            <SimpleData name="Vivienda_1">-55.50828330000</SimpleData>
            <SimpleData name="Superficie">0.70000000000</SimpleData>
            <SimpleData name="Situaci_1">Parametro</SimpleData>
            <SimpleData name="Plantado">Si</SimpleData>
            <SimpleData name="Parcela_La">-26.06278939000</SimpleData>
            <SimpleData name="Parcela_Lo">-55.50907612000</SimpleData>
            <SimpleData name="Grupo_Impl">G2</SimpleData>
            <SimpleData name="Grupo_de_P">A-P4-XX-XX-XX</SimpleData>
            <SimpleData name="Jornales">0.00000000000</SimpleData>
            <SimpleData name="Monto">0.00000000000</SimpleData>
            <SimpleData name="Estado_del">Activo</SimpleData>
            <SimpleData name="Empresa">Red Forestal Paraguay SA</SimpleData>
            <SimpleData name="Lote">A</SimpleData>
            <SimpleData name="Fecha_de_M">-</SimpleData>
            <SimpleData name="F__de_pren">-</SimpleData>
            <SimpleData name="Estado_FAO">Monitorear</SimpleData>
            <SimpleData name="Etapa_de_i">Mantenimiento A?o 1.1</SimpleData>
            <SimpleData name="Fecha_visi">2026/09/09</SimpleData>
            <SimpleData name="Cumple_sup">Si</SimpleData>
            <SimpleData name="Estado_mon">-</SimpleData>
            <SimpleData name="Situaci_12">-</SimpleData>
            <SimpleData name="Observaci">-</SimpleData>
            <SimpleData name="Dias_trans">11.32270833330</SimpleData>
            <SimpleData name="Prioridad">ALTA</SimpleData>
          </SchemaData>
        </ExtendedData>
        <Polygon>
          <outerBoundaryIs>
            <LinearRing>
              <coordinates>
                -55.5086107001468,-26.0624436996622,0
                -55.5085779692705,-26.063238734054,0
                -55.5096683001211,-26.0630182997087,0
                -55.509514300295,-26.0624003004509,0
                -55.5086107001468,-26.0624436996622,0
              </coordinates>
            </LinearRing>
          </outerBoundaryIs>
        </Polygon>
      </Placemark>
      <Placemark id="Distrito_TAVA__.11">
        <ExtendedData>
          <SchemaData schemaUrl="#Distrito_TAVA__.schema">
            <SimpleData name="CÈdula">8055385.00000000000</SimpleData>
            <SimpleData name="cedula">8055385</SimpleData>
            <SimpleData name="N_">4149.00000000000</SimpleData>
            <SimpleData name="Nombres_y_">NILDA BEATRIZ MEDINA MARTINEZ</SimpleData>
            <SimpleData name="Sexo">Mujer</SimpleData>
            <SimpleData name="Cambio_de_">NO</SimpleData>
            <SimpleData name="Titular_se">NO</SimpleData>
            <SimpleData name="SituaciÛn">NO</SimpleData>
            <SimpleData name="Comunidad">Ind?gena</SimpleData>
            <SimpleData name="Modelo_imp">Modelo 4</SimpleData>
            <SimpleData name="Departamen">CAAZAPA</SimpleData>
            <SimpleData name="Distrito">TAVA?</SimpleData>
            <SimpleData name="Localidad">COM INDIG KOKUERE GUAZU 6TA LINEA</SimpleData>
            <SimpleData name="TelÈfono">984752179</SimpleData>
            <SimpleData name="Vivienda_L">-26.03191540000</SimpleData>
            <SimpleData name="Vivienda_1">-55.51632640000</SimpleData>
            <SimpleData name="Superficie">0.70000000000</SimpleData>
            <SimpleData name="Situaci_1">Par?metro</SimpleData>
            <SimpleData name="Plantado">Si</SimpleData>
            <SimpleData name="Parcela_La">-26.04018855000</SimpleData>
            <SimpleData name="Parcela_Lo">-55.49885980000</SimpleData>
            <SimpleData name="Grupo_Impl">G2</SimpleData>
            <SimpleData name="Grupo_de_P">A-P4-XX-XX-XX</SimpleData>
            <SimpleData name="Jornales">0.00000000000</SimpleData>
            <SimpleData name="Monto">0.00000000000</SimpleData>
            <SimpleData name="Estado_del">Activo</SimpleData>
            <SimpleData name="Empresa">Red Forestal Paraguay SA</SimpleData>
            <SimpleData name="Lote">A</SimpleData>
            <SimpleData name="Fecha_de_M">-</SimpleData>
            <SimpleData name="F__de_pren">-</SimpleData>
            <SimpleData name="Estado_FAO">Monitorear</SimpleData>
            <SimpleData name="Etapa_de_i">Mantenimiento A?o 1.1</SimpleData>
            <SimpleData name="Fecha_visi">2026/09/08</SimpleData>
            <SimpleData name="Cumple_sup">Si</SimpleData>
            <SimpleData name="Estado_mon">-</SimpleData>
            <SimpleData name="Situaci_12">-</SimpleData>
            <SimpleData name="Observaci">-</SimpleData>
            <SimpleData name="Dias_trans">12.21643518520</SimpleData>
            <SimpleData name="Prioridad">ALTA</SimpleData>
          </SchemaData>
        </ExtendedData>
        <Polygon>
          <outerBoundaryIs>
            <LinearRing>
              <coordinates>
                -55.4984366999137,-26.0392849996244,0
                -55.4988566990008,-26.0410367002179,0
                -55.4993244990776,-26.0407768003207,0
                -55.4992049997592,-26.0405167001169,0
                -55.499063299286,-26.0403033006257,0
                -55.4989199993858,-26.0395218005837,0
                -55.4984366999137,-26.0392849996244,0
              </coordinates>
            </LinearRing>
          </outerBoundaryIs>
        </Polygon>
      </Placemark>
      <Placemark id="Distrito_TAVA__.12">
        <ExtendedData>
          <SchemaData schemaUrl="#Distrito_TAVA__.schema">
            <SimpleData name="CÈdula">5471651.00000000000</SimpleData>
            <SimpleData name="cedula">5471651</SimpleData>
            <SimpleData name="N_">3524.00000000000</SimpleData>
            <SimpleData name="Nombres_y_">ANTONIO GUAYUAN PAIVA</SimpleData>
            <SimpleData name="Sexo">Hombre</SimpleData>
            <SimpleData name="Cambio_de_">NO</SimpleData>
            <SimpleData name="Titular_se">NO</SimpleData>
            <SimpleData name="SituaciÛn">NO</SimpleData>
            <SimpleData name="Comunidad">Campesina</SimpleData>
            <SimpleData name="Modelo_imp">Modelo 5</SimpleData>
            <SimpleData name="Departamen">CAAZAPA</SimpleData>
            <SimpleData name="Distrito">TAVA?</SimpleData>
            <SimpleData name="Localidad">GUASU CUA</SimpleData>
            <SimpleData name="TelÈfono">0981008806</SimpleData>
            <SimpleData name="Vivienda_L">-26.29918890000</SimpleData>
            <SimpleData name="Vivienda_1">-55.73726710000</SimpleData>
            <SimpleData name="Superficie">0.70000000000</SimpleData>
            <SimpleData name="Situaci_1">Par?metro</SimpleData>
            <SimpleData name="Plantado">Si</SimpleData>
            <SimpleData name="Parcela_La">-26.29992067000</SimpleData>
            <SimpleData name="Parcela_Lo">-55.73768039000</SimpleData>
            <SimpleData name="Grupo_Impl">G2</SimpleData>
            <SimpleData name="Grupo_de_P">A-P5-XX-XX-XX</SimpleData>
            <SimpleData name="Jornales">0.00000000000</SimpleData>
            <SimpleData name="Monto">0.00000000000</SimpleData>
            <SimpleData name="Estado_del">Activo</SimpleData>
            <SimpleData name="Empresa">Red Forestal Paraguay SA</SimpleData>
            <SimpleData name="Lote">A</SimpleData>
            <SimpleData name="Fecha_de_M">-</SimpleData>
            <SimpleData name="F__de_pren">-</SimpleData>
            <SimpleData name="Estado_FAO">Monitorear</SimpleData>
            <SimpleData name="Etapa_de_i">Mantenimiento A?o 1.1</SimpleData>
            <SimpleData name="Fecha_visi">2026/09/14</SimpleData>
            <SimpleData name="Cumple_sup">Si</SimpleData>
            <SimpleData name="Estado_mon">-</SimpleData>
            <SimpleData name="Situaci_12">-</SimpleData>
            <SimpleData name="Observaci">-</SimpleData>
            <SimpleData name="Dias_trans">6.16125000000</SimpleData>
            <SimpleData name="Prioridad">ALTA</SimpleData>
          </SchemaData>
        </ExtendedData>
        <Polygon>
          <outerBoundaryIs>
            <LinearRing>
              <coordinates>
                -55.7371466999001,-26.2997183003049,0
                -55.7374266995213,-26.300468299856,0
                -55.7381700000322,-26.3000950001035,0
                -55.7382450004806,-26.3000183003608,0
                -55.7379367001289,-26.2994117000873,0
                -55.7378782998907,-26.2994650003342,0
                -55.737181699503,-26.2996650002097,0
                -55.7371466999001,-26.2997183003049,0
              </coordinates>
            </LinearRing>
          </outerBoundaryIs>
        </Polygon>
      </Placemark>
      <Placemark id="Distrito_TAVA__.13">
        <ExtendedData>
          <SchemaData schemaUrl="#Distrito_TAVA__.schema">
            <SimpleData name="CÈdula">7370222.00000000000</SimpleData>
            <SimpleData name="cedula">7370222</SimpleData>
            <SimpleData name="N_">9476.00000000000</SimpleData>
            <SimpleData name="Nombres_y_">ZUNILDA  CARVALLO BENITEZ</SimpleData>
            <SimpleData name="Sexo">Mujer</SimpleData>
            <SimpleData name="Cambio_de_">NO</SimpleData>
            <SimpleData name="Titular_se">NO</SimpleData>
            <SimpleData name="SituaciÛn">NO</SimpleData>
            <SimpleData name="Comunidad">Ind?gena</SimpleData>
            <SimpleData name="Modelo_imp">Modelo 5</SimpleData>
            <SimpleData name="Departamen">CAAZAPA</SimpleData>
            <SimpleData name="Distrito">TAVA?</SimpleData>
            <SimpleData name="Localidad"><![CDATA[COM INDIG KA'AMINDY]]></SimpleData>
            <SimpleData name="TelÈfono">0</SimpleData>
            <SimpleData name="Vivienda_L">-26.31272500000</SimpleData>
            <SimpleData name="Vivienda_1">-55.72458000000</SimpleData>
            <SimpleData name="Superficie">0.70000000000</SimpleData>
            <SimpleData name="Situaci_1">Parametro</SimpleData>
            <SimpleData name="Plantado">Si</SimpleData>
            <SimpleData name="Parcela_La">-26.31479890000</SimpleData>
            <SimpleData name="Parcela_Lo">-55.72343594000</SimpleData>
            <SimpleData name="Grupo_Impl">G2</SimpleData>
            <SimpleData name="Grupo_de_P">A-P5-XX-XX-XX</SimpleData>
            <SimpleData name="Jornales">0.00000000000</SimpleData>
            <SimpleData name="Monto">0.00000000000</SimpleData>
            <SimpleData name="Estado_del">Activo</SimpleData>
            <SimpleData name="Empresa">Red Forestal Paraguay SA</SimpleData>
            <SimpleData name="Lote">A</SimpleData>
            <SimpleData name="Fecha_de_M">-</SimpleData>
            <SimpleData name="F__de_pren">-</SimpleData>
            <SimpleData name="Estado_FAO">Monitorear</SimpleData>
            <SimpleData name="Etapa_de_i">Mantenimiento A?o 1.1</SimpleData>
            <SimpleData name="Fecha_visi">2026/09/16</SimpleData>
            <SimpleData name="Cumple_sup">Si</SimpleData>
            <SimpleData name="Estado_mon">-</SimpleData>
            <SimpleData name="Situaci_12">-</SimpleData>
            <SimpleData name="Observaci">-</SimpleData>
            <SimpleData name="Dias_trans">4.51628472222</SimpleData>
            <SimpleData name="Prioridad">ALTA</SimpleData>
          </SchemaData>
        </ExtendedData>
        <Polygon>
          <outerBoundaryIs>
            <LinearRing>
              <coordinates>
                -55.7236082996682,-26.3143367003408,0
                -55.7229083002195,-26.3147533002461,0
                -55.7228649998348,-26.3150917001651,0
                -55.7232954002876,-26.3152450003778,0
                -55.724013299731,-26.3148200002079,0
                -55.7238950002284,-26.3143966997087,0
                -55.7237657000161,-26.3144241996094,0
                -55.7236082996682,-26.3143367003408,0
              </coordinates>
            </LinearRing>
          </outerBoundaryIs>
        </Polygon>
      </Placemark>
      <Placemark id="Distrito_TAVA__.14">
        <ExtendedData>
          <SchemaData schemaUrl="#Distrito_TAVA__.schema">
            <SimpleData name="CÈdula">3724636.00000000000</SimpleData>
            <SimpleData name="cedula">3724636</SimpleData>
            <SimpleData name="N_">3804.00000000000</SimpleData>
            <SimpleData name="Nombres_y_">HERIBERTO FERNANDEZ GONZALEZ</SimpleData>
            <SimpleData name="Sexo">Hombre</SimpleData>
            <SimpleData name="Cambio_de_">NO</SimpleData>
            <SimpleData name="Titular_se">NO</SimpleData>
            <SimpleData name="SituaciÛn">NO</SimpleData>
            <SimpleData name="Comunidad">Ind?gena</SimpleData>
            <SimpleData name="Modelo_imp">Modelo 1</SimpleData>
            <SimpleData name="Departamen">CAAZAPA</SimpleData>
            <SimpleData name="Distrito">TAVA?</SimpleData>
            <SimpleData name="Localidad"><![CDATA[COM INDIG KA'AGUY PA'U]]></SimpleData>
            <SimpleData name="TelÈfono">0984417395</SimpleData>
            <SimpleData name="Vivienda_L">0.00000000000</SimpleData>
            <SimpleData name="Vivienda_1">0.00000000000</SimpleData>
            <SimpleData name="Superficie">0.80000000000</SimpleData>
            <SimpleData name="Situaci_1">Par?metro</SimpleData>
            <SimpleData name="Plantado">Si</SimpleData>
            <SimpleData name="Parcela_La">-26.31480796000</SimpleData>
            <SimpleData name="Parcela_Lo">-55.72164290000</SimpleData>
            <SimpleData name="Grupo_Impl">G2</SimpleData>
            <SimpleData name="Grupo_de_P">A-P5-XX-XX-XX</SimpleData>
            <SimpleData name="Jornales">0.00000000000</SimpleData>
            <SimpleData name="Monto">0.00000000000</SimpleData>
            <SimpleData name="Estado_del">Activo</SimpleData>
            <SimpleData name="Empresa">Red Forestal Paraguay SA</SimpleData>
            <SimpleData name="Lote">A</SimpleData>
            <SimpleData name="Fecha_de_M">-</SimpleData>
            <SimpleData name="F__de_pren">-</SimpleData>
            <SimpleData name="Estado_FAO">Monitorear</SimpleData>
            <SimpleData name="Etapa_de_i">Mantenimiento A?o 1.1</SimpleData>
            <SimpleData name="Fecha_visi">2026/09/16</SimpleData>
            <SimpleData name="Cumple_sup">Si</SimpleData>
            <SimpleData name="Estado_mon">-</SimpleData>
            <SimpleData name="Situaci_12">-</SimpleData>
            <SimpleData name="Observaci">-</SimpleData>
            <SimpleData name="Dias_trans">4.51636574074</SimpleData>
            <SimpleData name="Prioridad">ALTA</SimpleData>
          </SchemaData>
        </ExtendedData>
        <Polygon>
          <outerBoundaryIs>
            <LinearRing>
              <coordinates>
                -55.7210293813879,-26.3154308794736,0
                -55.7210232995211,-26.3154433002399,0
                -55.7217799865941,-26.3151359143652,0
                -55.7222949996583,-26.3149267002787,0
                -55.721923299686,-26.3142100003642,0
                -55.7211816998187,-26.3145782997823,0
                -55.7211682997253,-26.3148732995547,0
                -55.7211799998917,-26.3151232996613,0
                -55.7210293813879,-26.3154308794736,0
              </coordinates>
            </LinearRing>
          </outerBoundaryIs>
        </Polygon>
      </Placemark>
      <Placemark id="Distrito_TAVA__.15">
        <ExtendedData>
          <SchemaData schemaUrl="#Distrito_TAVA__.schema">
            <SimpleData name="CÈdula">5797738.00000000000</SimpleData>
            <SimpleData name="cedula">5797738</SimpleData>
            <SimpleData name="N_">3848.00000000000</SimpleData>
            <SimpleData name="Nombres_y_">ROSALBA FERNANDEZ GONZALEZ</SimpleData>
            <SimpleData name="Sexo">Mujer</SimpleData>
            <SimpleData name="Cambio_de_">NO</SimpleData>
            <SimpleData name="Titular_se">NO</SimpleData>
            <SimpleData name="SituaciÛn">NO</SimpleData>
            <SimpleData name="Comunidad">Ind?gena</SimpleData>
            <SimpleData name="Modelo_imp">Modelo 1</SimpleData>
            <SimpleData name="Departamen">CAAZAPA</SimpleData>
            <SimpleData name="Distrito">TAVA?</SimpleData>
            <SimpleData name="Localidad"><![CDATA[COM INDIG KA'AMINDY]]></SimpleData>
            <SimpleData name="TelÈfono">0982451170</SimpleData>
            <SimpleData name="Vivienda_L">-26.31475130000</SimpleData>
            <SimpleData name="Vivienda_1">-55.72269160000</SimpleData>
            <SimpleData name="Superficie">0.80000000000</SimpleData>
            <SimpleData name="Situaci_1">Par?metro</SimpleData>
            <SimpleData name="Plantado">Si</SimpleData>
            <SimpleData name="Parcela_La">-26.31429791000</SimpleData>
            <SimpleData name="Parcela_Lo">-55.72264110000</SimpleData>
            <SimpleData name="Grupo_Impl">G2</SimpleData>
            <SimpleData name="Grupo_de_P">A-P5-XX-XX-XX</SimpleData>
            <SimpleData name="Jornales">0.00000000000</SimpleData>
            <SimpleData name="Monto">0.00000000000</SimpleData>
            <SimpleData name="Estado_del">Activo</SimpleData>
            <SimpleData name="Empresa">Red Forestal Paraguay SA</SimpleData>
            <SimpleData name="Lote">A</SimpleData>
            <SimpleData name="Fecha_de_M">-</SimpleData>
            <SimpleData name="F__de_pren">-</SimpleData>
            <SimpleData name="Estado_FAO">Monitorear</SimpleData>
            <SimpleData name="Etapa_de_i">Mantenimiento A?o 1.1</SimpleData>
            <SimpleData name="Fecha_visi">2026/09/16</SimpleData>
            <SimpleData name="Cumple_sup">Si</SimpleData>
            <SimpleData name="Estado_mon">-</SimpleData>
            <SimpleData name="Situaci_12">-</SimpleData>
            <SimpleData name="Observaci">-</SimpleData>
            <SimpleData name="Dias_trans">4.51630787037</SimpleData>
            <SimpleData name="Prioridad">ALTA</SimpleData>
          </SchemaData>
        </ExtendedData>
        <Polygon>
          <outerBoundaryIs>
            <LinearRing>
              <coordinates>
                -55.7226417004525,-26.3137700004231,0
                -55.7219544995374,-26.3141877000922,0
                -55.7223549995554,-26.3148567002216,0
                -55.7228133004386,-26.3145867000819,0
                -55.7235849997112,-26.3142932998094,0
                -55.72338829959,-26.3142082997364,0
                -55.7232949996075,-26.3142367002278,0
                -55.7231000002846,-26.3140633000544,0
                -55.7230183002429,-26.3139016999432,0
                -55.7227749995807,-26.3140450000206,0
                -55.7226417004525,-26.3137700004231,0
              </coordinates>
            </LinearRing>
          </outerBoundaryIs>
        </Polygon>
      </Placemark>
      <Placemark id="Distrito_TAVA__.16">
        <ExtendedData>
          <SchemaData schemaUrl="#Distrito_TAVA__.schema">
            <SimpleData name="CÈdula">5747101.00000000000</SimpleData>
            <SimpleData name="cedula">5747101</SimpleData>
            <SimpleData name="N_">3523.00000000000</SimpleData>
            <SimpleData name="Nombres_y_">MARCO ANTONIO ORTIZ FERREIRA</SimpleData>
            <SimpleData name="Sexo">Hombre</SimpleData>
            <SimpleData name="Cambio_de_">NO</SimpleData>
            <SimpleData name="Titular_se">NO</SimpleData>
            <SimpleData name="SituaciÛn">NO</SimpleData>
            <SimpleData name="Comunidad">Campesina</SimpleData>
            <SimpleData name="Modelo_imp">Modelo 5</SimpleData>
            <SimpleData name="Departamen">CAAZAPA</SimpleData>
            <SimpleData name="Distrito">TAVA?</SimpleData>
            <SimpleData name="Localidad">GUASU CUA</SimpleData>
            <SimpleData name="TelÈfono">0985211892</SimpleData>
            <SimpleData name="Vivienda_L">-26.30352920000</SimpleData>
            <SimpleData name="Vivienda_1">-55.73108580000</SimpleData>
            <SimpleData name="Superficie">0.70000000000</SimpleData>
            <SimpleData name="Situaci_1">Par?metro</SimpleData>
            <SimpleData name="Plantado">Si</SimpleData>
            <SimpleData name="Parcela_La">-26.29950664000</SimpleData>
            <SimpleData name="Parcela_Lo">-55.73851346000</SimpleData>
            <SimpleData name="Grupo_Impl">G2</SimpleData>
            <SimpleData name="Grupo_de_P">A-P5-XX-XX-XX</SimpleData>
            <SimpleData name="Jornales">0.00000000000</SimpleData>
            <SimpleData name="Monto">0.00000000000</SimpleData>
            <SimpleData name="Estado_del">Activo</SimpleData>
            <SimpleData name="Empresa">Red Forestal Paraguay SA</SimpleData>
            <SimpleData name="Lote">A</SimpleData>
            <SimpleData name="Fecha_de_M">-</SimpleData>
            <SimpleData name="F__de_pren">-</SimpleData>
            <SimpleData name="Estado_FAO">Monitorear</SimpleData>
            <SimpleData name="Etapa_de_i">Mantenimiento A?o 1.1</SimpleData>
            <SimpleData name="Fecha_visi">2026/09/14</SimpleData>
            <SimpleData name="Cumple_sup">Si</SimpleData>
            <SimpleData name="Estado_mon">-</SimpleData>
            <SimpleData name="Situaci_12">-</SimpleData>
            <SimpleData name="Observaci">-</SimpleData>
            <SimpleData name="Dias_trans">6.16135416667</SimpleData>
            <SimpleData name="Prioridad">ALTA</SimpleData>
          </SchemaData>
        </ExtendedData>
        <Polygon>
          <outerBoundaryIs>
            <LinearRing>
              <coordinates>
                -55.7379566999595,-26.2993915997329,0
                -55.7382517003614,-26.3000233003971,0
                -55.7391117002242,-26.2995867000763,0
                -55.7390450001242,-26.299386700044,0
                -55.7386933002766,-26.2990850002809,0
                -55.7385150004228,-26.2990582998783,0
                -55.7379566999595,-26.2993915997329,0
              </coordinates>
            </LinearRing>
          </outerBoundaryIs>
        </Polygon>
      </Placemark>
      <Placemark id="Distrito_TAVA__.17">
        <ExtendedData>
          <SchemaData schemaUrl="#Distrito_TAVA__.schema">
            <SimpleData name="CÈdula">3768421.00000000000</SimpleData>
            <SimpleData name="cedula">3768421</SimpleData>
            <SimpleData name="N_">3805.00000000000</SimpleData>
            <SimpleData name="Nombres_y_">MIRTA VARGAS VAZQUEZ</SimpleData>
            <SimpleData name="Sexo">Mujer</SimpleData>
            <SimpleData name="Cambio_de_">NO</SimpleData>
            <SimpleData name="Titular_se">NO</SimpleData>
            <SimpleData name="SituaciÛn">NO</SimpleData>
            <SimpleData name="Comunidad">Ind?gena</SimpleData>
            <SimpleData name="Modelo_imp">Modelo 1</SimpleData>
            <SimpleData name="Departamen">CAAZAPA</SimpleData>
            <SimpleData name="Distrito">TAVA?</SimpleData>
            <SimpleData name="Localidad"><![CDATA[COM INDIG KA'AGUY PA'U]]></SimpleData>
            <SimpleData name="TelÈfono">0984417395</SimpleData>
            <SimpleData name="Vivienda_L">0.00000000000</SimpleData>
            <SimpleData name="Vivienda_1">0.00000000000</SimpleData>
            <SimpleData name="Superficie">0.80000000000</SimpleData>
            <SimpleData name="Situaci_1">Par?metro</SimpleData>
            <SimpleData name="Plantado">Si</SimpleData>
            <SimpleData name="Parcela_La">-26.31568419000</SimpleData>
            <SimpleData name="Parcela_Lo">-55.72135585000</SimpleData>
            <SimpleData name="Grupo_Impl">G2</SimpleData>
            <SimpleData name="Grupo_de_P">A-P5-XX-XX-XX</SimpleData>
            <SimpleData name="Jornales">0.00000000000</SimpleData>
            <SimpleData name="Monto">0.00000000000</SimpleData>
            <SimpleData name="Estado_del">Activo</SimpleData>
            <SimpleData name="Empresa">Red Forestal Paraguay SA</SimpleData>
            <SimpleData name="Lote">A</SimpleData>
            <SimpleData name="Fecha_de_M">-</SimpleData>
            <SimpleData name="F__de_pren">-</SimpleData>
            <SimpleData name="Estado_FAO">Monitorear</SimpleData>
            <SimpleData name="Etapa_de_i">Mantenimiento A?o 1.1</SimpleData>
            <SimpleData name="Fecha_visi">2026/09/16</SimpleData>
            <SimpleData name="Cumple_sup">Si</SimpleData>
            <SimpleData name="Estado_mon">-</SimpleData>
            <SimpleData name="Situaci_12">-</SimpleData>
            <SimpleData name="Observaci">-</SimpleData>
            <SimpleData name="Dias_trans">4.51635416667</SimpleData>
            <SimpleData name="Prioridad">ALTA</SimpleData>
          </SchemaData>
        </ExtendedData>
        <Polygon>
          <outerBoundaryIs>
            <LinearRing>
              <coordinates>
                -55.7217799865941,-26.3151359143652,0
                -55.7210232995211,-26.3154433002399,0
                -55.7210293813879,-26.3154308794736,0
                -55.721007699837,-26.3154393999908,0
                -55.7209517001159,-26.3156533997613,0
                -55.7206949999884,-26.3158150001946,0
                -55.7207133000232,-26.3159519001983,0
                -55.7207149999074,-26.3162150001937,0
                -55.7215317996756,-26.3162447997068,0
                -55.7216200001912,-26.3161500996098,0
                -55.7215794001156,-26.3159867002345,0
                -55.7214000002611,-26.3159266996746,0
                -55.7214423002316,-26.3157731000736,0
                -55.7217882998406,-26.3154950997943,0
                -55.7220550003361,-26.3152716997909,0
                -55.7222985003836,-26.3150216997949,0
                -55.7223167003704,-26.3149249995536,0
                -55.7217799865941,-26.3151359143652,0
              </coordinates>
            </LinearRing>
          </outerBoundaryIs>
        </Polygon>
      </Placemark>
      <Placemark id="Distrito_TAVA__.18">
        <ExtendedData>
          <SchemaData schemaUrl="#Distrito_TAVA__.schema">
            <SimpleData name="CÈdula">4983789.00000000000</SimpleData>
            <SimpleData name="cedula">4983789</SimpleData>
            <SimpleData name="N_">3838.00000000000</SimpleData>
            <SimpleData name="Nombres_y_">GRACIELA BENITEZ CACERES</SimpleData>
            <SimpleData name="Sexo">Mujer</SimpleData>
            <SimpleData name="Cambio_de_">NO</SimpleData>
            <SimpleData name="Titular_se">NO</SimpleData>
            <SimpleData name="SituaciÛn">NO</SimpleData>
            <SimpleData name="Comunidad">Ind?gena</SimpleData>
            <SimpleData name="Modelo_imp">Modelo 5</SimpleData>
            <SimpleData name="Departamen">CAAZAPA</SimpleData>
            <SimpleData name="Distrito">TAVA?</SimpleData>
            <SimpleData name="Localidad"><![CDATA[COM INDIG KA'AMINDY]]></SimpleData>
            <SimpleData name="TelÈfono">0984643510</SimpleData>
            <SimpleData name="Vivienda_L">-26.31410780000</SimpleData>
            <SimpleData name="Vivienda_1">-55.72187320000</SimpleData>
            <SimpleData name="Superficie">0.70000000000</SimpleData>
            <SimpleData name="Situaci_1">Par?metro</SimpleData>
            <SimpleData name="Plantado">Si</SimpleData>
            <SimpleData name="Parcela_La">-26.31561115000</SimpleData>
            <SimpleData name="Parcela_Lo">-55.72268635000</SimpleData>
            <SimpleData name="Grupo_Impl">G2</SimpleData>
            <SimpleData name="Grupo_de_P">A-P5-XX-XX-XX</SimpleData>
            <SimpleData name="Jornales">0.00000000000</SimpleData>
            <SimpleData name="Monto">0.00000000000</SimpleData>
            <SimpleData name="Estado_del">Activo</SimpleData>
            <SimpleData name="Empresa">Red Forestal Paraguay SA</SimpleData>
            <SimpleData name="Lote">A</SimpleData>
            <SimpleData name="Fecha_de_M">-</SimpleData>
            <SimpleData name="F__de_pren">-</SimpleData>
            <SimpleData name="Estado_FAO">Monitorear</SimpleData>
            <SimpleData name="Etapa_de_i">Mantenimiento A?o 1.1</SimpleData>
            <SimpleData name="Fecha_visi">2026/09/16</SimpleData>
            <SimpleData name="Cumple_sup">Si</SimpleData>
            <SimpleData name="Estado_mon">-</SimpleData>
            <SimpleData name="Situaci_12">-</SimpleData>
            <SimpleData name="Observaci">-</SimpleData>
            <SimpleData name="Dias_trans">4.51625000000</SimpleData>
            <SimpleData name="Prioridad">ALTA</SimpleData>
          </SchemaData>
        </ExtendedData>
        <Polygon>
          <outerBoundaryIs>
            <LinearRing>
              <coordinates>
                -55.7222251998077,-26.3155433001259,0
                -55.7223950001931,-26.3162932998506,0
                -55.7225582998303,-26.3161552996846,0
                -55.7228499998414,-26.3158249999054,0
                -55.7229516003177,-26.3157982003266,0
                -55.7233253000133,-26.315459000436,0
                -55.7230383003132,-26.3152449995793,0
                -55.7227753004297,-26.3151463996022,0
                -55.7226216995977,-26.3151200000275,0
                -55.7222251998077,-26.3155433001259,0
              </coordinates>
            </LinearRing>
          </outerBoundaryIs>
        </Polygon>
      </Placemark>
      <Placemark id="Distrito_TAVA__.19">
        <ExtendedData>
          <SchemaData schemaUrl="#Distrito_TAVA__.schema">
            <SimpleData name="CÈdula">4506163.00000000000</SimpleData>
            <SimpleData name="cedula">4506163</SimpleData>
            <SimpleData name="N_">3519.00000000000</SimpleData>
            <SimpleData name="Nombres_y_">STELA MARIS ALMADA PALACIOS</SimpleData>
            <SimpleData name="Sexo">Mujer</SimpleData>
            <SimpleData name="Cambio_de_">NO</SimpleData>
            <SimpleData name="Titular_se">NO</SimpleData>
            <SimpleData name="SituaciÛn">NO</SimpleData>
            <SimpleData name="Comunidad">Campesina</SimpleData>
            <SimpleData name="Modelo_imp">Modelo 5</SimpleData>
            <SimpleData name="Departamen">CAAZAPA</SimpleData>
            <SimpleData name="Distrito">TAVA?</SimpleData>
            <SimpleData name="Localidad">GUASU CUA</SimpleData>
            <SimpleData name="TelÈfono">0984759831</SimpleData>
            <SimpleData name="Vivienda_L">0.00000000000</SimpleData>
            <SimpleData name="Vivienda_1">0.00000000000</SimpleData>
            <SimpleData name="Superficie">0.70000000000</SimpleData>
            <SimpleData name="Situaci_1">Par?metro</SimpleData>
            <SimpleData name="Plantado">Si</SimpleData>
            <SimpleData name="Parcela_La">-26.30920872000</SimpleData>
            <SimpleData name="Parcela_Lo">-55.70847027000</SimpleData>
            <SimpleData name="Grupo_Impl">G2</SimpleData>
            <SimpleData name="Grupo_de_P">A-P5-XX-XX-XX</SimpleData>
            <SimpleData name="Jornales">0.00000000000</SimpleData>
            <SimpleData name="Monto">0.00000000000</SimpleData>
            <SimpleData name="Estado_del">Activo</SimpleData>
            <SimpleData name="Empresa">Red Forestal Paraguay SA</SimpleData>
            <SimpleData name="Lote">A</SimpleData>
            <SimpleData name="Fecha_de_M">-</SimpleData>
            <SimpleData name="F__de_pren">-</SimpleData>
            <SimpleData name="Estado_FAO">Monitorear</SimpleData>
            <SimpleData name="Etapa_de_i">Mantenimiento A?o 1.1</SimpleData>
            <SimpleData name="Fecha_visi">2026/09/14</SimpleData>
            <SimpleData name="Cumple_sup">Si</SimpleData>
            <SimpleData name="Estado_mon">-</SimpleData>
            <SimpleData name="Situaci_12">-</SimpleData>
            <SimpleData name="Observaci">-</SimpleData>
            <SimpleData name="Dias_trans">6.37710648148</SimpleData>
            <SimpleData name="Prioridad">ALTA</SimpleData>
          </SchemaData>
        </ExtendedData>
        <Polygon>
          <outerBoundaryIs>
            <LinearRing>
              <coordinates>
                -55.7078979996039,-26.3090450005223,0
                -55.7082748002163,-26.3097631995963,0
                -55.709087699374,-26.3093727001127,0
                -55.7085799995678,-26.3086367000586,0
                -55.7078979996039,-26.3090450005223,0
              </coordinates>
            </LinearRing>
          </outerBoundaryIs>
        </Polygon>
      </Placemark>
      <Placemark id="Distrito_TAVA__.20">
        <ExtendedData>
          <SchemaData schemaUrl="#Distrito_TAVA__.schema">
            <SimpleData name="CÈdula">6970507.00000000000</SimpleData>
            <SimpleData name="cedula">6970507</SimpleData>
            <SimpleData name="N_">3673.00000000000</SimpleData>
            <SimpleData name="Nombres_y_">ALBERTO ORVINA PENAYO</SimpleData>
            <SimpleData name="Sexo">Hombre</SimpleData>
            <SimpleData name="Cambio_de_">NO</SimpleData>
            <SimpleData name="Titular_se">NO</SimpleData>
            <SimpleData name="SituaciÛn">NO</SimpleData>
            <SimpleData name="Comunidad">Ind?gena</SimpleData>
            <SimpleData name="Modelo_imp">Modelo 1</SimpleData>
            <SimpleData name="Departamen">CAAZAPA</SimpleData>
            <SimpleData name="Distrito">TAVA?</SimpleData>
            <SimpleData name="Localidad"><![CDATA[COM INDIG KA'AGUY PA'U]]></SimpleData>
            <SimpleData name="TelÈfono">ND</SimpleData>
            <SimpleData name="Vivienda_L">0.00000000000</SimpleData>
            <SimpleData name="Vivienda_1">0.00000000000</SimpleData>
            <SimpleData name="Superficie">0.80000000000</SimpleData>
            <SimpleData name="Situaci_1">Par?metro</SimpleData>
            <SimpleData name="Plantado">Si</SimpleData>
            <SimpleData name="Parcela_La">-26.28256011000</SimpleData>
            <SimpleData name="Parcela_Lo">-55.71554415000</SimpleData>
            <SimpleData name="Grupo_Impl">G2</SimpleData>
            <SimpleData name="Grupo_de_P">A-P5-XX-XX-XX</SimpleData>
            <SimpleData name="Jornales">0.00000000000</SimpleData>
            <SimpleData name="Monto">0.00000000000</SimpleData>
            <SimpleData name="Estado_del">Activo</SimpleData>
            <SimpleData name="Empresa">Red Forestal Paraguay SA</SimpleData>
            <SimpleData name="Lote">A</SimpleData>
            <SimpleData name="Fecha_de_M">-</SimpleData>
            <SimpleData name="F__de_pren">-</SimpleData>
            <SimpleData name="Estado_FAO">Monitorear</SimpleData>
            <SimpleData name="Etapa_de_i">Mantenimiento A?o 1.1</SimpleData>
            <SimpleData name="Fecha_visi">2026/09/14</SimpleData>
            <SimpleData name="Cumple_sup">Si</SimpleData>
            <SimpleData name="Estado_mon">-</SimpleData>
            <SimpleData name="Situaci_12">-</SimpleData>
            <SimpleData name="Observaci">-</SimpleData>
            <SimpleData name="Dias_trans">6.45535879629</SimpleData>
            <SimpleData name="Prioridad">ALTA</SimpleData>
          </SchemaData>
        </ExtendedData>
        <Polygon>
          <outerBoundaryIs>
            <LinearRing>
              <coordinates>
                -55.7148466993017,-26.2832766995079,0
                -55.7149752996535,-26.2834615001186,0
                -55.7157047992029,-26.2828628992317,0
                -55.7158651001149,-26.2828066999961,0
                -55.7159946997621,-26.2826666995455,0
                -55.716023199348,-26.2824799000341,0
                -55.7158467002656,-26.281845000083,0
                -55.7157766989903,-26.2817699991526,0
                -55.7151900000121,-26.2822900002253,0
                -55.7153711000938,-26.2827814988141,0
                -55.7152916989284,-26.2829153990657,0
                -55.7148466993017,-26.2832766995079,0
              </coordinates>
            </LinearRing>
          </outerBoundaryIs>
        </Polygon>
      </Placemark>
      <Placemark id="Distrito_TAVA__.21">
        <ExtendedData>
          <SchemaData schemaUrl="#Distrito_TAVA__.schema">
            <SimpleData name="CÈdula">7441957.00000000000</SimpleData>
            <SimpleData name="cedula">7441957</SimpleData>
            <SimpleData name="N_">3675.00000000000</SimpleData>
            <SimpleData name="Nombres_y_">MARIANO ROQUE BENITEZ ACOSTA</SimpleData>
            <SimpleData name="Sexo">Hombre</SimpleData>
            <SimpleData name="Cambio_de_">NO</SimpleData>
            <SimpleData name="Titular_se">NO</SimpleData>
            <SimpleData name="SituaciÛn">NO</SimpleData>
            <SimpleData name="Comunidad">Ind?gena</SimpleData>
            <SimpleData name="Modelo_imp">Modelo 1</SimpleData>
            <SimpleData name="Departamen">CAAZAPA</SimpleData>
            <SimpleData name="Distrito">TAVA?</SimpleData>
            <SimpleData name="Localidad"><![CDATA[COM INDIG KA'AGUY PA'U]]></SimpleData>
            <SimpleData name="TelÈfono">0984493756</SimpleData>
            <SimpleData name="Vivienda_L">-26.27892200000</SimpleData>
            <SimpleData name="Vivienda_1">-55.71824380000</SimpleData>
            <SimpleData name="Superficie">0.80000000000</SimpleData>
            <SimpleData name="Situaci_1">Pol?gono</SimpleData>
            <SimpleData name="Plantado">Si</SimpleData>
            <SimpleData name="Parcela_La">-26.27948044000</SimpleData>
            <SimpleData name="Parcela_Lo">-55.71846196000</SimpleData>
            <SimpleData name="Grupo_Impl">G2</SimpleData>
            <SimpleData name="Grupo_de_P">A-P5-XX-XX-XX</SimpleData>
            <SimpleData name="Jornales">0.00000000000</SimpleData>
            <SimpleData name="Monto">0.00000000000</SimpleData>
            <SimpleData name="Estado_del">Activo</SimpleData>
            <SimpleData name="Empresa">Red Forestal Paraguay SA</SimpleData>
            <SimpleData name="Lote">A</SimpleData>
            <SimpleData name="Fecha_de_M">-</SimpleData>
            <SimpleData name="F__de_pren">-</SimpleData>
            <SimpleData name="Estado_FAO">Monitorear</SimpleData>
            <SimpleData name="Etapa_de_i">Mantenimiento A?o 1.1</SimpleData>
            <SimpleData name="Fecha_visi">2026/09/14</SimpleData>
            <SimpleData name="Cumple_sup">Si</SimpleData>
            <SimpleData name="Estado_mon">-</SimpleData>
            <SimpleData name="Situaci_12">-</SimpleData>
            <SimpleData name="Observaci">-</SimpleData>
            <SimpleData name="Dias_trans">6.52373842592</SimpleData>
            <SimpleData name="Prioridad">ALTA</SimpleData>
          </SchemaData>
        </ExtendedData>
        <MultiGeometry>
          <Polygon>
            <outerBoundaryIs>
              <LinearRing>
                <coordinates>
                  -55.7175123993074,-26.2809976992167,0
                  -55.7177149998968,-26.2811550000122,0
                  -55.7182680005281,-26.2811110994984,0
                  -55.7182750000911,-26.2809997991796,0
                  -55.7183149998964,-26.2806982992112,0
                  -55.7175182999825,-26.2807066996699,0
                  -55.7174583002796,-26.2808332993497,0
                  -55.7175123993074,-26.2809976992167,0
                </coordinates>
              </LinearRing>
            </outerBoundaryIs>
          </Polygon>
          <Polygon>
            <outerBoundaryIs>
              <LinearRing>
                <coordinates>
                  -55.718555000336,-26.278991699453,0
                  -55.7183400001132,-26.2790516991114,0
                  -55.7180682996759,-26.279036700037,0
                  -55.7180196999504,-26.2791099995666,0
                  -55.7182228005728,-26.2793096992619,0
                  -55.7180013998575,-26.2794430001755,0
                  -55.7180496994489,-26.2796014987474,0
                  -55.7184016994898,-26.2799316998385,0
                  -55.7187449995066,-26.2799566997128,0
                  -55.7188232999588,-26.2799116992182,0
                  -55.7188649997845,-26.2795166990175,0
                  -55.7187233002579,-26.2793999995414,0
                  -55.7188399996841,-26.2792932996131,0
                  -55.718555000336,-26.278991699453,0
                </coordinates>
              </LinearRing>
            </outerBoundaryIs>
          </Polygon>
        </MultiGeometry>
      </Placemark>
    </Document>
  </Document>
</kml>
