<?xml version="1.0" encoding="UTF-8"?>
<kml xmlns="http://www.opengis.net/kml/2.2">
  <Document id="root_doc">
    <Schema id="Distrito_PASO_YOBAI.schema">
      <SimpleField name="Cédula" type="double"/>
      <SimpleField name="cedula" type="string"/>
      <SimpleField name="N_" type="double"/>
      <SimpleField name="Nombres_y_" type="string"/>
      <SimpleField name="Sexo" type="string"/>
      <SimpleField name="Cambio_de_" type="string"/>
      <SimpleField name="Titular_se" type="string"/>
      <SimpleField name="Cédula_Ti" type="string"/>
      <SimpleField name="Situación" type="string"/>
      <SimpleField name="Comunidad" type="string"/>
      <SimpleField name="Modelo_imp" type="string"/>
      <SimpleField name="Departamen" type="string"/>
      <SimpleField name="Distrito" type="string"/>
      <SimpleField name="Localidad" type="string"/>
      <SimpleField name="Teléfono" type="string"/>
      <SimpleField name="Vivienda_L" type="double"/>
      <SimpleField name="Vivienda_1" type="double"/>
      <SimpleField name="Superficie" type="double"/>
      <SimpleField name="Situaci_1" type="string"/>
      <SimpleField name="Plantado" type="string"/>
      <SimpleField name="Parcela_La" type="double"/>
      <SimpleField name="Parcela_Lo" type="double"/>
      <SimpleField name="Grupo_Impl" type="string"/>
      <SimpleField name="Grupo_de_P" type="string"/>
      <SimpleField name="Jornales" type="double"/>
      <SimpleField name="Monto" type="double"/>
      <SimpleField name="Estado_del" type="string"/>
      <SimpleField name="Empresa" type="string"/>
      <SimpleField name="Lote" type="string"/>
      <SimpleField name="Fecha_de_M" type="string"/>
      <SimpleField name="F__de_pren" type="string"/>
      <SimpleField name="Estado_FAO" type="string"/>
      <SimpleField name="Etapa_de_i" type="string"/>
      <SimpleField name="Fecha_visi" type="string"/>
      <SimpleField name="Cumple_sup" type="string"/>
      <SimpleField name="Estado_mon" type="string"/>
      <SimpleField name="Situaci_12" type="string"/>
      <SimpleField name="Observaci" type="string"/>
      <SimpleField name="Dias_trans" type="double"/>
      <SimpleField name="Prioridad" type="string"/>
    </Schema>
    <Document id="Distrito_PASO_YOBAI">
      <name>Distrito_PASO YOBAI</name>
      <Placemark id="Distrito_PASO_YOBAI.1">
        <ExtendedData>
          <SchemaData schemaUrl="#Distrito_PASO_YOBAI.schema">
            <SimpleData name="Cédula">6518274.00000000000</SimpleData>
            <SimpleData name="cedula">6518274</SimpleData>
            <SimpleData name="N_">5628.00000000000</SimpleData>
            <SimpleData name="Nombres_y_">JAIME RAMON ARZAMENDIA ROSALES</SimpleData>
            <SimpleData name="Sexo">Hombre</SimpleData>
            <SimpleData name="Cambio_de_">NO</SimpleData>
            <SimpleData name="Titular_se">NO</SimpleData>
            <SimpleData name="Situación">NO</SimpleData>
            <SimpleData name="Comunidad">Campesina</SimpleData>
            <SimpleData name="Modelo_imp">Modelo 5</SimpleData>
            <SimpleData name="Departamen">GUAIRA</SimpleData>
            <SimpleData name="Distrito">PASO YOBAI</SimpleData>
            <SimpleData name="Localidad">SAN FRANCISCO I</SimpleData>
            <SimpleData name="Teléfono">0991862329</SimpleData>
            <SimpleData name="Vivienda_L">-25.71673690000</SimpleData>
            <SimpleData name="Vivienda_1">-55.92880930000</SimpleData>
            <SimpleData name="Superficie">0.70000000000</SimpleData>
            <SimpleData name="Situaci_1">Pol?gono</SimpleData>
            <SimpleData name="Plantado">Si</SimpleData>
            <SimpleData name="Parcela_La">-25.71617878000</SimpleData>
            <SimpleData name="Parcela_Lo">-55.92709164000</SimpleData>
            <SimpleData name="Grupo_Impl">G2</SimpleData>
            <SimpleData name="Grupo_de_P">B-P1-XX-XX-XX</SimpleData>
            <SimpleData name="Jornales">0.00000000000</SimpleData>
            <SimpleData name="Monto">0.00000000000</SimpleData>
            <SimpleData name="Estado_del">Activo</SimpleData>
            <SimpleData name="Empresa">Unique Wood Paraguay SA</SimpleData>
            <SimpleData name="Lote">B</SimpleData>
            <SimpleData name="Fecha_de_M">-</SimpleData>
            <SimpleData name="F__de_pren">-</SimpleData>
            <SimpleData name="Estado_FAO">Monitorear</SimpleData>
            <SimpleData name="Etapa_de_i">Mantenimiento A?o 1.1</SimpleData>
            <SimpleData name="Fecha_visi">2026/09/09</SimpleData>
            <SimpleData name="Cumple_sup">Si</SimpleData>
            <SimpleData name="Estado_mon">-</SimpleData>
            <SimpleData name="Situaci_12">-</SimpleData>
            <SimpleData name="Observaci">-</SimpleData>
            <SimpleData name="Dias_trans">11.12057870370</SimpleData>
            <SimpleData name="Prioridad">ALTA</SimpleData>
          </SchemaData>
        </ExtendedData>
        <Polygon>
          <outerBoundaryIs>
            <LinearRing>
              <coordinates>
                -55.926103299676,-25.7161171003719,0
                -55.9280632999648,-25.7166571994599,0
                -55.9281533992795,-25.7163413996317,0
                -55.9262864000266,-25.7156720998946,0
                -55.926103299676,-25.7161171003719,0
              </coordinates>
            </LinearRing>
          </outerBoundaryIs>
        </Polygon>
      </Placemark>
      <Placemark id="Distrito_PASO_YOBAI.2">
        <ExtendedData>
          <SchemaData schemaUrl="#Distrito_PASO_YOBAI.schema">
            <SimpleData name="Cédula">6204320.00000000000</SimpleData>
            <SimpleData name="cedula">6204320</SimpleData>
            <SimpleData name="N_">5398.00000000000</SimpleData>
            <SimpleData name="Nombres_y_">NERY DUARTE BENITEZ</SimpleData>
            <SimpleData name="Sexo">Hombre</SimpleData>
            <SimpleData name="Cambio_de_">NO</SimpleData>
            <SimpleData name="Titular_se">NO</SimpleData>
            <SimpleData name="Situación">NO</SimpleData>
            <SimpleData name="Comunidad">Ind?gena</SimpleData>
            <SimpleData name="Modelo_imp">Modelo 6</SimpleData>
            <SimpleData name="Departamen">GUAIRA</SimpleData>
            <SimpleData name="Distrito">PASO YOBAI</SimpleData>
            <SimpleData name="Localidad">COM INDIG SANTA TERESITA</SimpleData>
            <SimpleData name="Teléfono">0982039886</SimpleData>
            <SimpleData name="Vivienda_L">-25.69715390000</SimpleData>
            <SimpleData name="Vivienda_1">-55.90404080000</SimpleData>
            <SimpleData name="Superficie">0.90000000000</SimpleData>
            <SimpleData name="Situaci_1">Pol?gono</SimpleData>
            <SimpleData name="Plantado">Si</SimpleData>
            <SimpleData name="Parcela_La">-25.69878821000</SimpleData>
            <SimpleData name="Parcela_Lo">-55.90195122000</SimpleData>
            <SimpleData name="Grupo_Impl">G2</SimpleData>
            <SimpleData name="Grupo_de_P">B-P1-XX-XX-XX</SimpleData>
            <SimpleData name="Jornales">0.00000000000</SimpleData>
            <SimpleData name="Monto">0.00000000000</SimpleData>
            <SimpleData name="Estado_del">Activo</SimpleData>
            <SimpleData name="Empresa">Unique Wood Paraguay SA</SimpleData>
            <SimpleData name="Lote">B</SimpleData>
            <SimpleData name="Fecha_de_M">-</SimpleData>
            <SimpleData name="F__de_pren">-</SimpleData>
            <SimpleData name="Estado_FAO">Monitorear</SimpleData>
            <SimpleData name="Etapa_de_i">Mantenimiento A?o 1.1</SimpleData>
            <SimpleData name="Fecha_visi">2026/09/02</SimpleData>
            <SimpleData name="Cumple_sup">Si</SimpleData>
            <SimpleData name="Estado_mon">-</SimpleData>
            <SimpleData name="Situaci_12">-</SimpleData>
            <SimpleData name="Observaci">-</SimpleData>
            <SimpleData name="Dias_trans">18.27035879630</SimpleData>
            <SimpleData name="Prioridad">ALTA</SimpleData>
          </SchemaData>
        </ExtendedData>
        <Polygon>
          <outerBoundaryIs>
            <LinearRing>
              <coordinates>
                -55.901438000488,-25.6992182997656,0
                -55.902050500318,-25.6995300997559,0
                -55.9024761004289,-25.6983058002297,0
                -55.9018197002415,-25.6980957004852,0
                -55.901438000488,-25.6992182997656,0
              </coordinates>
            </LinearRing>
          </outerBoundaryIs>
        </Polygon>
      </Placemark>
      <Placemark id="Distrito_PASO_YOBAI.3">
        <ExtendedData>
          <SchemaData schemaUrl="#Distrito_PASO_YOBAI.schema">
            <SimpleData name="Cédula">6198494.00000000000</SimpleData>
            <SimpleData name="cedula">6198494</SimpleData>
            <SimpleData name="N_">5405.00000000000</SimpleData>
            <SimpleData name="Nombres_y_">JUAN VILLALBA BENITEZ</SimpleData>
            <SimpleData name="Sexo">Hombre</SimpleData>
            <SimpleData name="Cambio_de_">NO</SimpleData>
            <SimpleData name="Titular_se">NO</SimpleData>
            <SimpleData name="Situación">NO</SimpleData>
            <SimpleData name="Comunidad">Ind?gena</SimpleData>
            <SimpleData name="Modelo_imp">Modelo 6</SimpleData>
            <SimpleData name="Departamen">GUAIRA</SimpleData>
            <SimpleData name="Distrito">PASO YOBAI</SimpleData>
            <SimpleData name="Localidad">COM INDIG SANTA TERESITA</SimpleData>
            <SimpleData name="Teléfono">0986311589</SimpleData>
            <SimpleData name="Vivienda_L">-25.69578250000</SimpleData>
            <SimpleData name="Vivienda_1">-55.90420160000</SimpleData>
            <SimpleData name="Superficie">0.90000000000</SimpleData>
            <SimpleData name="Situaci_1">Pol?gono</SimpleData>
            <SimpleData name="Plantado">Si</SimpleData>
            <SimpleData name="Parcela_La">-25.69580903000</SimpleData>
            <SimpleData name="Parcela_Lo">-55.90414398000</SimpleData>
            <SimpleData name="Grupo_Impl">G2</SimpleData>
            <SimpleData name="Grupo_de_P">B-P1-XX-XX-XX</SimpleData>
            <SimpleData name="Jornales">0.00000000000</SimpleData>
            <SimpleData name="Monto">0.00000000000</SimpleData>
            <SimpleData name="Estado_del">Activo</SimpleData>
            <SimpleData name="Empresa">Unique Wood Paraguay SA</SimpleData>
            <SimpleData name="Lote">B</SimpleData>
            <SimpleData name="Fecha_de_M">-</SimpleData>
            <SimpleData name="F__de_pren">-</SimpleData>
            <SimpleData name="Estado_FAO">Monitorear</SimpleData>
            <SimpleData name="Etapa_de_i">Mantenimiento A?o 1.1</SimpleData>
            <SimpleData name="Fecha_visi">2026/09/02</SimpleData>
            <SimpleData name="Cumple_sup">Si</SimpleData>
            <SimpleData name="Estado_mon">-</SimpleData>
            <SimpleData name="Situaci_12">-</SimpleData>
            <SimpleData name="Observaci">-</SimpleData>
            <SimpleData name="Dias_trans">18.25353009260</SimpleData>
            <SimpleData name="Prioridad">ALTA</SimpleData>
          </SchemaData>
        </ExtendedData>
        <Polygon>
          <outerBoundaryIs>
            <LinearRing>
              <coordinates>
                -55.9037287002014,-25.6964136004425,0
                -55.9043182997567,-25.6965900000472,0
                -55.9045435999333,-25.6951884003398,0
                -55.9039916000561,-25.6950149001285,0
                -55.9037287002014,-25.6964136004425,0
              </coordinates>
            </LinearRing>
          </outerBoundaryIs>
        </Polygon>
      </Placemark>
      <Placemark id="Distrito_PASO_YOBAI.4">
        <ExtendedData>
          <SchemaData schemaUrl="#Distrito_PASO_YOBAI.schema">
            <SimpleData name="Cédula">6204313.00000000000</SimpleData>
            <SimpleData name="cedula">6204313</SimpleData>
            <SimpleData name="N_">5394.00000000000</SimpleData>
            <SimpleData name="Nombres_y_">ELENA BARRIOS BENITEZ</SimpleData>
            <SimpleData name="Sexo">Mujer</SimpleData>
            <SimpleData name="Cambio_de_">NO</SimpleData>
            <SimpleData name="Titular_se">NO</SimpleData>
            <SimpleData name="Situación">NO</SimpleData>
            <SimpleData name="Comunidad">Ind?gena</SimpleData>
            <SimpleData name="Modelo_imp">Modelo 4</SimpleData>
            <SimpleData name="Departamen">GUAIRA</SimpleData>
            <SimpleData name="Distrito">PASO YOBAI</SimpleData>
            <SimpleData name="Localidad">COM INDIG SANTA TERESITA</SimpleData>
            <SimpleData name="Teléfono">0983341517</SimpleData>
            <SimpleData name="Vivienda_L">-25.69442830000</SimpleData>
            <SimpleData name="Vivienda_1">-55.90435640000</SimpleData>
            <SimpleData name="Superficie">0.70000000000</SimpleData>
            <SimpleData name="Situaci_1">Pol?gono</SimpleData>
            <SimpleData name="Plantado">Si</SimpleData>
            <SimpleData name="Parcela_La">-25.69476521000</SimpleData>
            <SimpleData name="Parcela_Lo">-55.90344427000</SimpleData>
            <SimpleData name="Grupo_Impl">G2</SimpleData>
            <SimpleData name="Grupo_de_P">B-P1-XX-XX-XX</SimpleData>
            <SimpleData name="Jornales">0.00000000000</SimpleData>
            <SimpleData name="Monto">0.00000000000</SimpleData>
            <SimpleData name="Estado_del">Activo</SimpleData>
            <SimpleData name="Empresa">Unique Wood Paraguay SA</SimpleData>
            <SimpleData name="Lote">B</SimpleData>
            <SimpleData name="Fecha_de_M">-</SimpleData>
            <SimpleData name="F__de_pren">-</SimpleData>
            <SimpleData name="Estado_FAO">Monitorear</SimpleData>
            <SimpleData name="Etapa_de_i">Mantenimiento A?o 1.1</SimpleData>
            <SimpleData name="Fecha_visi">2026/09/15</SimpleData>
            <SimpleData name="Cumple_sup">Si</SimpleData>
            <SimpleData name="Estado_mon">-</SimpleData>
            <SimpleData name="Situaci_12">-</SimpleData>
            <SimpleData name="Observaci">-</SimpleData>
            <SimpleData name="Dias_trans">5.45982638889</SimpleData>
            <SimpleData name="Prioridad">ALTA</SimpleData>
          </SchemaData>
        </ExtendedData>
        <Polygon>
          <outerBoundaryIs>
            <LinearRing>
              <coordinates>
                -55.902838500014,-25.6947432999032,0
                -55.903273300354,-25.6953400995435,0
                -55.9040602004223,-25.6947063000465,0
                -55.9036346000027,-25.6942299997146,0
                -55.902838500014,-25.6947432999032,0
              </coordinates>
            </LinearRing>
          </outerBoundaryIs>
        </Polygon>
      </Placemark>
      <Placemark id="Distrito_PASO_YOBAI.5">
        <ExtendedData>
          <SchemaData schemaUrl="#Distrito_PASO_YOBAI.schema">
            <SimpleData name="Cédula">7162930.00000000000</SimpleData>
            <SimpleData name="cedula">7162930</SimpleData>
            <SimpleData name="N_">5516.00000000000</SimpleData>
            <SimpleData name="Nombres_y_">FIDELINA BARRIOS MEDINA</SimpleData>
            <SimpleData name="Sexo">Mujer</SimpleData>
            <SimpleData name="Cambio_de_">NO</SimpleData>
            <SimpleData name="Titular_se">NO</SimpleData>
            <SimpleData name="Situación">NO</SimpleData>
            <SimpleData name="Comunidad">Ind?gena</SimpleData>
            <SimpleData name="Modelo_imp">Modelo 6</SimpleData>
            <SimpleData name="Departamen">GUAIRA</SimpleData>
            <SimpleData name="Distrito">PASO YOBAI</SimpleData>
            <SimpleData name="Localidad">COM INDIG SANTA TERESITA</SimpleData>
            <SimpleData name="Teléfono">0982270620</SimpleData>
            <SimpleData name="Vivienda_L">-25.69782430000</SimpleData>
            <SimpleData name="Vivienda_1">-55.89636950000</SimpleData>
            <SimpleData name="Superficie">0.90000000000</SimpleData>
            <SimpleData name="Situaci_1">Pol?gono</SimpleData>
            <SimpleData name="Plantado">Si</SimpleData>
            <SimpleData name="Parcela_La">-25.69133252000</SimpleData>
            <SimpleData name="Parcela_Lo">-55.89656162000</SimpleData>
            <SimpleData name="Grupo_Impl">G2</SimpleData>
            <SimpleData name="Grupo_de_P">B-P1-XX-XX-XX</SimpleData>
            <SimpleData name="Jornales">0.00000000000</SimpleData>
            <SimpleData name="Monto">0.00000000000</SimpleData>
            <SimpleData name="Estado_del">Activo</SimpleData>
            <SimpleData name="Empresa">Unique Wood Paraguay SA</SimpleData>
            <SimpleData name="Lote">B</SimpleData>
            <SimpleData name="Fecha_de_M">-</SimpleData>
            <SimpleData name="F__de_pren">-</SimpleData>
            <SimpleData name="Estado_FAO">Monitorear</SimpleData>
            <SimpleData name="Etapa_de_i">Mantenimiento A?o 1.1</SimpleData>
            <SimpleData name="Fecha_visi">2026/09/02</SimpleData>
            <SimpleData name="Cumple_sup">Si</SimpleData>
            <SimpleData name="Estado_mon">-</SimpleData>
            <SimpleData name="Situaci_12">-</SimpleData>
            <SimpleData name="Observaci">-</SimpleData>
            <SimpleData name="Dias_trans">18.25790509260</SimpleData>
            <SimpleData name="Prioridad">ALTA</SimpleData>
          </SchemaData>
        </ExtendedData>
        <MultiGeometry>
          <Polygon>
            <outerBoundaryIs>
              <LinearRing>
                <coordinates>
                  -55.8961117004556,-25.6941482997351,0
                  -55.8969478005225,-25.6942425000689,0
                  -55.8969004000161,-25.6938671999231,0
                  -55.8961120995794,-25.6937716998321,0
                  -55.8961117004556,-25.6941482997351,0
                </coordinates>
              </LinearRing>
            </outerBoundaryIs>
          </Polygon>
          <Polygon>
            <outerBoundaryIs>
              <LinearRing>
                <coordinates>
                  -55.8961763996057,-25.6917359001863,0
                  -55.896660099628,-25.6918071997693,0
                  -55.8969351997562,-25.6916951002499,0
                  -55.8969286005477,-25.6908909998061,0
                  -55.8962109997375,-25.6908921999119,0
                  -55.8961763996057,-25.6917359001863,0
                </coordinates>
              </LinearRing>
            </outerBoundaryIs>
          </Polygon>
        </MultiGeometry>
      </Placemark>
      <Placemark id="Distrito_PASO_YOBAI.6">
        <ExtendedData>
          <SchemaData schemaUrl="#Distrito_PASO_YOBAI.schema">
            <SimpleData name="Cédula">7031317.00000000000</SimpleData>
            <SimpleData name="cedula">7031317</SimpleData>
            <SimpleData name="N_">5631.00000000000</SimpleData>
            <SimpleData name="Nombres_y_">ALDO ESQUIVEL NEUKIRCHINGER</SimpleData>
            <SimpleData name="Sexo">Hombre</SimpleData>
            <SimpleData name="Cambio_de_">NO</SimpleData>
            <SimpleData name="Titular_se">NO</SimpleData>
            <SimpleData name="Situación">NO</SimpleData>
            <SimpleData name="Comunidad">Campesina</SimpleData>
            <SimpleData name="Modelo_imp">Modelo 5</SimpleData>
            <SimpleData name="Departamen">GUAIRA</SimpleData>
            <SimpleData name="Distrito">PASO YOBAI</SimpleData>
            <SimpleData name="Localidad">SAN FRANCISCO I</SimpleData>
            <SimpleData name="Teléfono">0984719697</SimpleData>
            <SimpleData name="Vivienda_L">-25.70982970000</SimpleData>
            <SimpleData name="Vivienda_1">-55.93698380000</SimpleData>
            <SimpleData name="Superficie">0.70000000000</SimpleData>
            <SimpleData name="Situaci_1">Pol?gono</SimpleData>
            <SimpleData name="Plantado">Si</SimpleData>
            <SimpleData name="Parcela_La">-25.71007656000</SimpleData>
            <SimpleData name="Parcela_Lo">-55.93616891000</SimpleData>
            <SimpleData name="Grupo_Impl">G2</SimpleData>
            <SimpleData name="Grupo_de_P">B-P1-XX-XX-XX</SimpleData>
            <SimpleData name="Jornales">0.00000000000</SimpleData>
            <SimpleData name="Monto">0.00000000000</SimpleData>
            <SimpleData name="Estado_del">Activo</SimpleData>
            <SimpleData name="Empresa">Unique Wood Paraguay SA</SimpleData>
            <SimpleData name="Lote">B</SimpleData>
            <SimpleData name="Fecha_de_M">-</SimpleData>
            <SimpleData name="F__de_pren">-</SimpleData>
            <SimpleData name="Estado_FAO">Monitorear</SimpleData>
            <SimpleData name="Etapa_de_i">Mantenimiento A?o 1.1</SimpleData>
            <SimpleData name="Fecha_visi">2026/09/09</SimpleData>
            <SimpleData name="Cumple_sup">Si</SimpleData>
            <SimpleData name="Estado_mon">-</SimpleData>
            <SimpleData name="Situaci_12">-</SimpleData>
            <SimpleData name="Observaci">-</SimpleData>
            <SimpleData name="Dias_trans">11.16471064810</SimpleData>
            <SimpleData name="Prioridad">ALTA</SimpleData>
          </SchemaData>
        </ExtendedData>
        <Polygon>
          <outerBoundaryIs>
            <LinearRing>
              <coordinates>
                -55.9354799999756,-25.7102649997746,0
                -55.9364708999568,-25.7104993001255,0
                -55.9368149996914,-25.7099483003961,0
                -55.9359882996264,-25.7095999996572,0
                -55.9354799999756,-25.7102649997746,0
              </coordinates>
            </LinearRing>
          </outerBoundaryIs>
        </Polygon>
      </Placemark>
      <Placemark id="Distrito_PASO_YOBAI.7">
        <ExtendedData>
          <SchemaData schemaUrl="#Distrito_PASO_YOBAI.schema">
            <SimpleData name="Cédula">7467408.00000000000</SimpleData>
            <SimpleData name="cedula">7467408</SimpleData>
            <SimpleData name="N_">5366.00000000000</SimpleData>
            <SimpleData name="Nombres_y_">MANUELA AMARILLA GONZALEZ</SimpleData>
            <SimpleData name="Sexo">Mujer</SimpleData>
            <SimpleData name="Cambio_de_">NO</SimpleData>
            <SimpleData name="Titular_se">NO</SimpleData>
            <SimpleData name="Situación">NO</SimpleData>
            <SimpleData name="Comunidad">Ind?gena</SimpleData>
            <SimpleData name="Modelo_imp">Modelo 4</SimpleData>
            <SimpleData name="Departamen">GUAIRA</SimpleData>
            <SimpleData name="Distrito">PASO YOBAI</SimpleData>
            <SimpleData name="Localidad">COM INDIG SANTA TERESITA</SimpleData>
            <SimpleData name="Teléfono">0982030138</SimpleData>
            <SimpleData name="Vivienda_L">-25.70204450000</SimpleData>
            <SimpleData name="Vivienda_1">-55.92027280000</SimpleData>
            <SimpleData name="Superficie">0.70000000000</SimpleData>
            <SimpleData name="Situaci_1">Pol?gono</SimpleData>
            <SimpleData name="Plantado">Si</SimpleData>
            <SimpleData name="Parcela_La">-25.70124373000</SimpleData>
            <SimpleData name="Parcela_Lo">-55.91941018000</SimpleData>
            <SimpleData name="Grupo_Impl">G2</SimpleData>
            <SimpleData name="Grupo_de_P">B-P1-XX-XX-XX</SimpleData>
            <SimpleData name="Jornales">0.00000000000</SimpleData>
            <SimpleData name="Monto">0.00000000000</SimpleData>
            <SimpleData name="Estado_del">Activo</SimpleData>
            <SimpleData name="Empresa">Unique Wood Paraguay SA</SimpleData>
            <SimpleData name="Lote">B</SimpleData>
            <SimpleData name="Fecha_de_M">-</SimpleData>
            <SimpleData name="F__de_pren">-</SimpleData>
            <SimpleData name="Estado_FAO">Monitorear</SimpleData>
            <SimpleData name="Etapa_de_i">Mantenimiento A?o 1.1</SimpleData>
            <SimpleData name="Fecha_visi">2026/09/15</SimpleData>
            <SimpleData name="Cumple_sup">Si</SimpleData>
            <SimpleData name="Estado_mon">-</SimpleData>
            <SimpleData name="Situaci_12">-</SimpleData>
            <SimpleData name="Observaci">-</SimpleData>
            <SimpleData name="Dias_trans">5.45984953704</SimpleData>
            <SimpleData name="Prioridad">ALTA</SimpleData>
          </SchemaData>
        </ExtendedData>
        <Polygon>
          <outerBoundaryIs>
            <LinearRing>
              <coordinates>
                -55.9190675998023,-25.701648199965,0
                -55.9197379001818,-25.7018301008059,0
                -55.9197408998971,-25.7009011991812,0
                -55.9191292996791,-25.7005809995936,0
                -55.9190675998023,-25.701648199965,0
              </coordinates>
            </LinearRing>
          </outerBoundaryIs>
        </Polygon>
      </Placemark>
      <Placemark id="Distrito_PASO_YOBAI.8">
        <ExtendedData>
          <SchemaData schemaUrl="#Distrito_PASO_YOBAI.schema">
            <SimpleData name="Cédula">6204318.00000000000</SimpleData>
            <SimpleData name="cedula">6204318</SimpleData>
            <SimpleData name="N_">5424.00000000000</SimpleData>
            <SimpleData name="Nombres_y_">OLGA VILLALBA DUARTE</SimpleData>
            <SimpleData name="Sexo">Mujer</SimpleData>
            <SimpleData name="Cambio_de_">NO</SimpleData>
            <SimpleData name="Titular_se">NO</SimpleData>
            <SimpleData name="Situación">NO</SimpleData>
            <SimpleData name="Comunidad">Ind?gena</SimpleData>
            <SimpleData name="Modelo_imp">Modelo 6</SimpleData>
            <SimpleData name="Departamen">GUAIRA</SimpleData>
            <SimpleData name="Distrito">PASO YOBAI</SimpleData>
            <SimpleData name="Localidad">COM INDIG SANTA TERESITA</SimpleData>
            <SimpleData name="Teléfono">0986923043</SimpleData>
            <SimpleData name="Vivienda_L">-25.69787040000</SimpleData>
            <SimpleData name="Vivienda_1">-55.89704450000</SimpleData>
            <SimpleData name="Superficie">0.90000000000</SimpleData>
            <SimpleData name="Situaci_1">Pol?gono</SimpleData>
            <SimpleData name="Plantado">Si</SimpleData>
            <SimpleData name="Parcela_La">-25.69718825000</SimpleData>
            <SimpleData name="Parcela_Lo">-55.89787263000</SimpleData>
            <SimpleData name="Grupo_Impl">G2</SimpleData>
            <SimpleData name="Grupo_de_P">B-P1-XX-XX-XX</SimpleData>
            <SimpleData name="Jornales">0.00000000000</SimpleData>
            <SimpleData name="Monto">0.00000000000</SimpleData>
            <SimpleData name="Estado_del">Activo</SimpleData>
            <SimpleData name="Empresa">Unique Wood Paraguay SA</SimpleData>
            <SimpleData name="Lote">B</SimpleData>
            <SimpleData name="Fecha_de_M">-</SimpleData>
            <SimpleData name="F__de_pren">-</SimpleData>
            <SimpleData name="Estado_FAO">Monitorear</SimpleData>
            <SimpleData name="Etapa_de_i">Mantenimiento A?o 1.1</SimpleData>
            <SimpleData name="Fecha_visi">2026/09/12</SimpleData>
            <SimpleData name="Cumple_sup">Si</SimpleData>
            <SimpleData name="Estado_mon">-</SimpleData>
            <SimpleData name="Situaci_12">-</SimpleData>
            <SimpleData name="Observaci">-</SimpleData>
            <SimpleData name="Dias_trans">8.36362268519</SimpleData>
            <SimpleData name="Prioridad">ALTA</SimpleData>
          </SchemaData>
        </ExtendedData>
        <Polygon>
          <outerBoundaryIs>
            <LinearRing>
              <coordinates>
                -55.8974767001487,-25.6967832998772,0
                -55.8975367004184,-25.6978332998725,0
                -55.8983267004928,-25.6976899999881,0
                -55.8981299996577,-25.6964982997162,0
                -55.8976083007686,-25.6966099998824,0
                -55.8974767001487,-25.6967832998772,0
              </coordinates>
            </LinearRing>
          </outerBoundaryIs>
        </Polygon>
      </Placemark>
      <Placemark id="Distrito_PASO_YOBAI.9">
        <ExtendedData>
          <SchemaData schemaUrl="#Distrito_PASO_YOBAI.schema">
            <SimpleData name="Cédula">7445575.00000000000</SimpleData>
            <SimpleData name="cedula">7445575</SimpleData>
            <SimpleData name="N_">5441.00000000000</SimpleData>
            <SimpleData name="Nombres_y_">NARCISO PENAYO MARTINEZ</SimpleData>
            <SimpleData name="Sexo">Hombre</SimpleData>
            <SimpleData name="Cambio_de_">NO</SimpleData>
            <SimpleData name="Titular_se">NO</SimpleData>
            <SimpleData name="Situación">NO</SimpleData>
            <SimpleData name="Comunidad">Ind?gena</SimpleData>
            <SimpleData name="Modelo_imp">Modelo 6</SimpleData>
            <SimpleData name="Departamen">GUAIRA</SimpleData>
            <SimpleData name="Distrito">PASO YOBAI</SimpleData>
            <SimpleData name="Localidad">COM INDIG SANTA TERESITA</SimpleData>
            <SimpleData name="Teléfono">0986493249</SimpleData>
            <SimpleData name="Vivienda_L">-25.69866120000</SimpleData>
            <SimpleData name="Vivienda_1">-55.90001900000</SimpleData>
            <SimpleData name="Superficie">0.90000000000</SimpleData>
            <SimpleData name="Situaci_1">Pol?gono</SimpleData>
            <SimpleData name="Plantado">Si</SimpleData>
            <SimpleData name="Parcela_La">-25.69782167000</SimpleData>
            <SimpleData name="Parcela_Lo">-55.90097393000</SimpleData>
            <SimpleData name="Grupo_Impl">G2</SimpleData>
            <SimpleData name="Grupo_de_P">B-P1-XX-XX-XX</SimpleData>
            <SimpleData name="Jornales">0.00000000000</SimpleData>
            <SimpleData name="Monto">0.00000000000</SimpleData>
            <SimpleData name="Estado_del">Activo</SimpleData>
            <SimpleData name="Empresa">Unique Wood Paraguay SA</SimpleData>
            <SimpleData name="Lote">B</SimpleData>
            <SimpleData name="Fecha_de_M">-</SimpleData>
            <SimpleData name="F__de_pren">-</SimpleData>
            <SimpleData name="Estado_FAO">Monitorear</SimpleData>
            <SimpleData name="Etapa_de_i">Mantenimiento A?o 1.1</SimpleData>
            <SimpleData name="Fecha_visi">2026/09/02</SimpleData>
            <SimpleData name="Cumple_sup">Si</SimpleData>
            <SimpleData name="Estado_mon">-</SimpleData>
            <SimpleData name="Situaci_12">-</SimpleData>
            <SimpleData name="Observaci">-</SimpleData>
            <SimpleData name="Dias_trans">18.26776620370</SimpleData>
            <SimpleData name="Prioridad">ALTA</SimpleData>
          </SchemaData>
        </ExtendedData>
        <Polygon>
          <outerBoundaryIs>
            <LinearRing>
              <coordinates>
                -55.9004649993055,-25.6983566997281,0
                -55.9010650007481,-25.6985183000596,0
                -55.9015649998952,-25.6972867003333,0
                -55.900742599697,-25.6972215000148,0
                -55.9004649993055,-25.6983566997281,0
              </coordinates>
            </LinearRing>
          </outerBoundaryIs>
        </Polygon>
      </Placemark>
      <Placemark id="Distrito_PASO_YOBAI.10">
        <ExtendedData>
          <SchemaData schemaUrl="#Distrito_PASO_YOBAI.schema">
            <SimpleData name="Cédula">6905078.00000000000</SimpleData>
            <SimpleData name="cedula">6905078</SimpleData>
            <SimpleData name="N_">5348.00000000000</SimpleData>
            <SimpleData name="Nombres_y_">NERY CARDOZO BENITEZ</SimpleData>
            <SimpleData name="Sexo">Hombre</SimpleData>
            <SimpleData name="Cambio_de_">NO</SimpleData>
            <SimpleData name="Titular_se">NO</SimpleData>
            <SimpleData name="Situación">NO</SimpleData>
            <SimpleData name="Comunidad">Ind?gena</SimpleData>
            <SimpleData name="Modelo_imp">Modelo 6</SimpleData>
            <SimpleData name="Departamen">GUAIRA</SimpleData>
            <SimpleData name="Distrito">PASO YOBAI</SimpleData>
            <SimpleData name="Localidad">COM INDIG SANTA TERESITA</SimpleData>
            <SimpleData name="Teléfono">0986923043</SimpleData>
            <SimpleData name="Vivienda_L">-25.69873900000</SimpleData>
            <SimpleData name="Vivienda_1">-55.91333720000</SimpleData>
            <SimpleData name="Superficie">0.90000000000</SimpleData>
            <SimpleData name="Situaci_1">Pol?gono</SimpleData>
            <SimpleData name="Plantado">Si</SimpleData>
            <SimpleData name="Parcela_La">-25.69889539000</SimpleData>
            <SimpleData name="Parcela_Lo">-55.91492299000</SimpleData>
            <SimpleData name="Grupo_Impl">G2</SimpleData>
            <SimpleData name="Grupo_de_P">B-P1-XX-XX-XX</SimpleData>
            <SimpleData name="Jornales">0.00000000000</SimpleData>
            <SimpleData name="Monto">0.00000000000</SimpleData>
            <SimpleData name="Estado_del">Activo</SimpleData>
            <SimpleData name="Empresa">Unique Wood Paraguay SA</SimpleData>
            <SimpleData name="Lote">B</SimpleData>
            <SimpleData name="Fecha_de_M">-</SimpleData>
            <SimpleData name="F__de_pren">-</SimpleData>
            <SimpleData name="Estado_FAO">Monitorear</SimpleData>
            <SimpleData name="Etapa_de_i">Mantenimiento A?o 1.1</SimpleData>
            <SimpleData name="Fecha_visi">2026/09/02</SimpleData>
            <SimpleData name="Cumple_sup">Si</SimpleData>
            <SimpleData name="Estado_mon">-</SimpleData>
            <SimpleData name="Situaci_12">-</SimpleData>
            <SimpleData name="Observaci">-</SimpleData>
            <SimpleData name="Dias_trans">18.30091435190</SimpleData>
            <SimpleData name="Prioridad">ALTA</SimpleData>
          </SchemaData>
        </ExtendedData>
        <Polygon>
          <outerBoundaryIs>
            <LinearRing>
              <coordinates>
                -55.9146410472634,-25.6987589679635,0
                -55.9145216995524,-25.6989683005097,0
                -55.9145059784639,-25.6989588454614,0
                -55.9142696995755,-25.6993085007254,0
                -55.9148827572055,-25.6995293862592,0
                -55.9149024999347,-25.6995365001243,0
                -55.9149736586144,-25.69943193227,0
                -55.9154898999949,-25.6986733004419,0
                -55.9150808003478,-25.6981082000524,0
                -55.9146410472634,-25.6987589679635,0
              </coordinates>
            </LinearRing>
          </outerBoundaryIs>
        </Polygon>
      </Placemark>
      <Placemark id="Distrito_PASO_YOBAI.11">
        <ExtendedData>
          <SchemaData schemaUrl="#Distrito_PASO_YOBAI.schema">
            <SimpleData name="Cédula">4526434.00000000000</SimpleData>
            <SimpleData name="cedula">4526434</SimpleData>
            <SimpleData name="N_">5354.00000000000</SimpleData>
            <SimpleData name="Nombres_y_">DARIO DUARTE QUINTANA</SimpleData>
            <SimpleData name="Sexo">Hombre</SimpleData>
            <SimpleData name="Cambio_de_">NO</SimpleData>
            <SimpleData name="Titular_se">NO</SimpleData>
            <SimpleData name="Situación">NO</SimpleData>
            <SimpleData name="Comunidad">Ind?gena</SimpleData>
            <SimpleData name="Modelo_imp">Modelo 6</SimpleData>
            <SimpleData name="Departamen">GUAIRA</SimpleData>
            <SimpleData name="Distrito">PASO YOBAI</SimpleData>
            <SimpleData name="Localidad">COM INDIG SANTA TERESITA</SimpleData>
            <SimpleData name="Teléfono">0981081182</SimpleData>
            <SimpleData name="Vivienda_L">-25.70218770000</SimpleData>
            <SimpleData name="Vivienda_1">-55.91775710000</SimpleData>
            <SimpleData name="Superficie">0.90000000000</SimpleData>
            <SimpleData name="Situaci_1">Pol?gono</SimpleData>
            <SimpleData name="Plantado">Si</SimpleData>
            <SimpleData name="Parcela_La">-25.70155489000</SimpleData>
            <SimpleData name="Parcela_Lo">-55.91750462000</SimpleData>
            <SimpleData name="Grupo_Impl">G2</SimpleData>
            <SimpleData name="Grupo_de_P">B-P1-XX-XX-XX</SimpleData>
            <SimpleData name="Jornales">0.00000000000</SimpleData>
            <SimpleData name="Monto">0.00000000000</SimpleData>
            <SimpleData name="Estado_del">Activo</SimpleData>
            <SimpleData name="Empresa">Unique Wood Paraguay SA</SimpleData>
            <SimpleData name="Lote">B</SimpleData>
            <SimpleData name="Fecha_de_M">-</SimpleData>
            <SimpleData name="F__de_pren">-</SimpleData>
            <SimpleData name="Estado_FAO">Monitorear</SimpleData>
            <SimpleData name="Etapa_de_i">Mantenimiento A?o 1.1</SimpleData>
            <SimpleData name="Fecha_visi">2026/09/02</SimpleData>
            <SimpleData name="Cumple_sup">Si</SimpleData>
            <SimpleData name="Estado_mon">-</SimpleData>
            <SimpleData name="Situaci_12">-</SimpleData>
            <SimpleData name="Observaci">-</SimpleData>
            <SimpleData name="Dias_trans">18.31004629630</SimpleData>
            <SimpleData name="Prioridad">ALTA</SimpleData>
          </SchemaData>
        </ExtendedData>
        <Polygon>
          <outerBoundaryIs>
            <LinearRing>
              <coordinates>
                -55.9169021002018,-25.7018932005782,0
                -55.9171665995474,-25.702210200014,0
                -55.9182598006038,-25.7014780000142,0
                -55.918028299797,-25.7011399004891,0
                -55.9177133999022,-25.7009704000222,0
                -55.9169353000101,-25.7014317995181,0
                -55.9169021002018,-25.7018932005782,0
              </coordinates>
            </LinearRing>
          </outerBoundaryIs>
        </Polygon>
      </Placemark>
      <Placemark id="Distrito_PASO_YOBAI.12">
        <ExtendedData>
          <SchemaData schemaUrl="#Distrito_PASO_YOBAI.schema">
            <SimpleData name="Cédula">6204277.00000000000</SimpleData>
            <SimpleData name="cedula">6204277</SimpleData>
            <SimpleData name="N_">5353.00000000000</SimpleData>
            <SimpleData name="Nombres_y_">BENIGNO DUARTE MARTINEZ</SimpleData>
            <SimpleData name="Sexo">Hombre</SimpleData>
            <SimpleData name="Cambio_de_">NO</SimpleData>
            <SimpleData name="Titular_se">NO</SimpleData>
            <SimpleData name="Situación">NO</SimpleData>
            <SimpleData name="Comunidad">Ind?gena</SimpleData>
            <SimpleData name="Modelo_imp">Modelo 6</SimpleData>
            <SimpleData name="Departamen">GUAIRA</SimpleData>
            <SimpleData name="Distrito">PASO YOBAI</SimpleData>
            <SimpleData name="Localidad">COM INDIG SANTA TERESITA</SimpleData>
            <SimpleData name="Teléfono">0983990288</SimpleData>
            <SimpleData name="Vivienda_L">-25.69778110000</SimpleData>
            <SimpleData name="Vivienda_1">-55.91185360000</SimpleData>
            <SimpleData name="Superficie">0.90000000000</SimpleData>
            <SimpleData name="Situaci_1">Pol?gono</SimpleData>
            <SimpleData name="Plantado">Si</SimpleData>
            <SimpleData name="Parcela_La">-25.69934659000</SimpleData>
            <SimpleData name="Parcela_Lo">-55.91556465000</SimpleData>
            <SimpleData name="Grupo_Impl">G2</SimpleData>
            <SimpleData name="Grupo_de_P">B-P1-XX-XX-XX</SimpleData>
            <SimpleData name="Jornales">0.00000000000</SimpleData>
            <SimpleData name="Monto">0.00000000000</SimpleData>
            <SimpleData name="Estado_del">Activo</SimpleData>
            <SimpleData name="Empresa">Unique Wood Paraguay SA</SimpleData>
            <SimpleData name="Lote">B</SimpleData>
            <SimpleData name="Fecha_de_M">-</SimpleData>
            <SimpleData name="F__de_pren">-</SimpleData>
            <SimpleData name="Estado_FAO">Monitorear</SimpleData>
            <SimpleData name="Etapa_de_i">Mantenimiento A?o 1.1</SimpleData>
            <SimpleData name="Fecha_visi">2026/09/02</SimpleData>
            <SimpleData name="Cumple_sup">Si</SimpleData>
            <SimpleData name="Estado_mon">-</SimpleData>
            <SimpleData name="Situaci_12">-</SimpleData>
            <SimpleData name="Observaci">-</SimpleData>
            <SimpleData name="Dias_trans">18.30435185190</SimpleData>
            <SimpleData name="Prioridad">ALTA</SimpleData>
          </SchemaData>
        </ExtendedData>
        <Polygon>
          <outerBoundaryIs>
            <LinearRing>
              <coordinates>
                -55.9149736586144,-25.69943193227,0
                -55.9149024999347,-25.6995365001243,0
                -55.9148827572055,-25.6995293862592,0
                -55.9148334007247,-25.699582299453,0
                -55.9155943996104,-25.7000251999592,0
                -55.9162231000883,-25.6990190007996,0
                -55.9156879006132,-25.6986661996962,0
                -55.9149736586144,-25.69943193227,0
              </coordinates>
            </LinearRing>
          </outerBoundaryIs>
        </Polygon>
      </Placemark>
    </Document>
  </Document>
</kml>
