<?xml version="1.0" encoding="UTF-8"?>
<kml xmlns="http://www.opengis.net/kml/2.2">
  <Document id="root_doc">
    <Schema id="Distrito_YRYBUCUA.schema">
      <SimpleField name="Cédula" type="double"/>
      <SimpleField name="cedula" type="string"/>
      <SimpleField name="N_" type="double"/>
      <SimpleField name="Nombres_y_" type="string"/>
      <SimpleField name="Sexo" type="string"/>
      <SimpleField name="Cambio_de_" type="string"/>
      <SimpleField name="Titular_se" type="string"/>
      <SimpleField name="Cédula_Ti" type="string"/>
      <SimpleField name="Situación" type="string"/>
      <SimpleField name="Comunidad" type="string"/>
      <SimpleField name="Modelo_imp" type="string"/>
      <SimpleField name="Departamen" type="string"/>
      <SimpleField name="Distrito" type="string"/>
      <SimpleField name="Localidad" type="string"/>
      <SimpleField name="Teléfono" type="string"/>
      <SimpleField name="Vivienda_L" type="double"/>
      <SimpleField name="Vivienda_1" type="double"/>
      <SimpleField name="Superficie" type="double"/>
      <SimpleField name="Situaci_1" type="string"/>
      <SimpleField name="Plantado" type="string"/>
      <SimpleField name="Parcela_La" type="double"/>
      <SimpleField name="Parcela_Lo" type="double"/>
      <SimpleField name="Grupo_Impl" type="string"/>
      <SimpleField name="Grupo_de_P" type="string"/>
      <SimpleField name="Jornales" type="double"/>
      <SimpleField name="Monto" type="double"/>
      <SimpleField name="Estado_del" type="string"/>
      <SimpleField name="Empresa" type="string"/>
      <SimpleField name="Lote" type="string"/>
      <SimpleField name="Fecha_de_M" type="string"/>
      <SimpleField name="F__de_pren" type="string"/>
      <SimpleField name="Estado_FAO" type="string"/>
      <SimpleField name="Etapa_de_i" type="string"/>
      <SimpleField name="Fecha_visi" type="string"/>
      <SimpleField name="Cumple_sup" type="string"/>
      <SimpleField name="Estado_mon" type="string"/>
      <SimpleField name="Situaci_12" type="string"/>
      <SimpleField name="Observaci" type="string"/>
      <SimpleField name="Dias_trans" type="double"/>
      <SimpleField name="Prioridad" type="string"/>
    </Schema>
    <Document id="Distrito_YRYBUCUA">
      <name>Distrito_YRYBUCUA</name>
      <Placemark id="Distrito_YRYBUCUA.1">
        <ExtendedData>
          <SchemaData schemaUrl="#Distrito_YRYBUCUA.schema">
            <SimpleData name="Cédula">6274899.00000000000</SimpleData>
            <SimpleData name="cedula">6274899</SimpleData>
            <SimpleData name="N_">1453.00000000000</SimpleData>
            <SimpleData name="Nombres_y_">DOMINGA BAEZ</SimpleData>
            <SimpleData name="Sexo">Mujer</SimpleData>
            <SimpleData name="Cambio_de_">NO</SimpleData>
            <SimpleData name="Titular_se">NO</SimpleData>
            <SimpleData name="Situación">NO</SimpleData>
            <SimpleData name="Comunidad">Campesina</SimpleData>
            <SimpleData name="Modelo_imp">Modelo 1</SimpleData>
            <SimpleData name="Departamen">SAN PEDRO</SimpleData>
            <SimpleData name="Distrito">YRYBUCUA</SimpleData>
            <SimpleData name="Localidad">SANTA CATALINA</SimpleData>
            <SimpleData name="Teléfono">0975819970</SimpleData>
            <SimpleData name="Vivienda_L">-24.43963010000</SimpleData>
            <SimpleData name="Vivienda_1">-56.16479610000</SimpleData>
            <SimpleData name="Superficie">0.80000000000</SimpleData>
            <SimpleData name="Situaci_1">Pol?gono</SimpleData>
            <SimpleData name="Plantado">Si</SimpleData>
            <SimpleData name="Parcela_La">-24.43710705000</SimpleData>
            <SimpleData name="Parcela_Lo">-56.16297184000</SimpleData>
            <SimpleData name="Grupo_Impl">G1</SimpleData>
            <SimpleData name="Grupo_de_P">Lote 1-P5-P1P1-P1P1-XX</SimpleData>
            <SimpleData name="Jornales">8.00000000000</SimpleData>
            <SimpleData name="Monto">914316.00000000000</SimpleData>
            <SimpleData name="Estado_del">Activo</SimpleData>
            <SimpleData name="Empresa">Hyh Consultores SRL</SimpleData>
            <SimpleData name="Lote">Lote 1</SimpleData>
            <SimpleData name="Fecha_de_M">-</SimpleData>
            <SimpleData name="F__de_pren">-</SimpleData>
            <SimpleData name="Estado_FAO">Monitorear</SimpleData>
            <SimpleData name="Etapa_de_i">Mantenimiento A?o 2</SimpleData>
            <SimpleData name="Fecha_visi">2026/09/10</SimpleData>
            <SimpleData name="Cumple_sup">-</SimpleData>
            <SimpleData name="Estado_mon">-</SimpleData>
            <SimpleData name="Situaci_12">-</SimpleData>
            <SimpleData name="Observaci">-</SimpleData>
            <SimpleData name="Dias_trans">10.47722222220</SimpleData>
            <SimpleData name="Prioridad">ALTA</SimpleData>
          </SchemaData>
        </ExtendedData>
        <Polygon>
          <outerBoundaryIs>
            <LinearRing>
              <coordinates>
                -56.1623153999926,-24.4367617003059,0
                -56.1632426000894,-24.4378517002673,0
                -56.1635559015519,-24.4373681008973,0
                -56.1628200015577,-24.4364450003032,0
                -56.1623153999926,-24.4367617003059,0
              </coordinates>
            </LinearRing>
          </outerBoundaryIs>
        </Polygon>
      </Placemark>
      <Placemark id="Distrito_YRYBUCUA.2">
        <ExtendedData>
          <SchemaData schemaUrl="#Distrito_YRYBUCUA.schema">
            <SimpleData name="Cédula">2297336.00000000000</SimpleData>
            <SimpleData name="cedula">2297336</SimpleData>
            <SimpleData name="N_">1450.00000000000</SimpleData>
            <SimpleData name="Nombres_y_">EMILIANA CACERES ROMAN</SimpleData>
            <SimpleData name="Sexo">Mujer</SimpleData>
            <SimpleData name="Cambio_de_">NO</SimpleData>
            <SimpleData name="Titular_se">NO</SimpleData>
            <SimpleData name="Situación">NO</SimpleData>
            <SimpleData name="Comunidad">Campesina</SimpleData>
            <SimpleData name="Modelo_imp">Modelo 4</SimpleData>
            <SimpleData name="Departamen">SAN PEDRO</SimpleData>
            <SimpleData name="Distrito">YRYBUCUA</SimpleData>
            <SimpleData name="Localidad">SANTA CATALINA</SimpleData>
            <SimpleData name="Teléfono">0984319160</SimpleData>
            <SimpleData name="Vivienda_L">-24.43742680000</SimpleData>
            <SimpleData name="Vivienda_1">-56.16763570000</SimpleData>
            <SimpleData name="Superficie">0.70000000000</SimpleData>
            <SimpleData name="Situaci_1">Pol?gono</SimpleData>
            <SimpleData name="Plantado">Si</SimpleData>
            <SimpleData name="Parcela_La">-24.43073961000</SimpleData>
            <SimpleData name="Parcela_Lo">-56.16161481000</SimpleData>
            <SimpleData name="Grupo_Impl">G1</SimpleData>
            <SimpleData name="Grupo_de_P">Lote 1-P5-P1P1-P1P1-XX</SimpleData>
            <SimpleData name="Jornales">8.00000000000</SimpleData>
            <SimpleData name="Monto">914316.00000000000</SimpleData>
            <SimpleData name="Estado_del">Activo</SimpleData>
            <SimpleData name="Empresa">Hyh Consultores SRL</SimpleData>
            <SimpleData name="Lote">Lote 1</SimpleData>
            <SimpleData name="Fecha_de_M">-</SimpleData>
            <SimpleData name="F__de_pren">-</SimpleData>
            <SimpleData name="Estado_FAO">Monitorear</SimpleData>
            <SimpleData name="Etapa_de_i">Mantenimiento A?o 2</SimpleData>
            <SimpleData name="Fecha_visi">2026/09/11</SimpleData>
            <SimpleData name="Cumple_sup">-</SimpleData>
            <SimpleData name="Estado_mon">-</SimpleData>
            <SimpleData name="Situaci_12">-</SimpleData>
            <SimpleData name="Observaci">-</SimpleData>
            <SimpleData name="Dias_trans">9.18966435185</SimpleData>
            <SimpleData name="Prioridad">ALTA</SimpleData>
          </SchemaData>
        </ExtendedData>
        <Polygon>
          <outerBoundaryIs>
            <LinearRing>
              <coordinates>
                -56.1608830013953,-24.4309505301669,0
                -56.1612809009589,-24.4312738303531,0
                -56.162316900814,-24.4306051317596,0
                -56.161935900331,-24.4301738305606,0
                -56.1608830013953,-24.4309505301669,0
              </coordinates>
            </LinearRing>
          </outerBoundaryIs>
        </Polygon>
      </Placemark>
      <Placemark id="Distrito_YRYBUCUA.3">
        <ExtendedData>
          <SchemaData schemaUrl="#Distrito_YRYBUCUA.schema">
            <SimpleData name="Cédula">7781949.00000000000</SimpleData>
            <SimpleData name="cedula">7781949</SimpleData>
            <SimpleData name="N_">1449.00000000000</SimpleData>
            <SimpleData name="Nombres_y_">ESMILCE GOMEZ CACERES</SimpleData>
            <SimpleData name="Sexo">Mujer</SimpleData>
            <SimpleData name="Cambio_de_">NO</SimpleData>
            <SimpleData name="Titular_se">NO</SimpleData>
            <SimpleData name="Situación">NO</SimpleData>
            <SimpleData name="Comunidad">Campesina</SimpleData>
            <SimpleData name="Modelo_imp">Modelo 4</SimpleData>
            <SimpleData name="Departamen">SAN PEDRO</SimpleData>
            <SimpleData name="Distrito">YRYBUCUA</SimpleData>
            <SimpleData name="Localidad">SANTA CATALINA</SimpleData>
            <SimpleData name="Teléfono">0982845334</SimpleData>
            <SimpleData name="Vivienda_L">-24.43740170000</SimpleData>
            <SimpleData name="Vivienda_1">-56.16775780000</SimpleData>
            <SimpleData name="Superficie">0.70000000000</SimpleData>
            <SimpleData name="Situaci_1">Pol?gono</SimpleData>
            <SimpleData name="Plantado">Si</SimpleData>
            <SimpleData name="Parcela_La">-24.43110610000</SimpleData>
            <SimpleData name="Parcela_Lo">-56.16207535000</SimpleData>
            <SimpleData name="Grupo_Impl">G1</SimpleData>
            <SimpleData name="Grupo_de_P">Lote 1-P5-P1P1-P1P1-XX</SimpleData>
            <SimpleData name="Jornales">8.00000000000</SimpleData>
            <SimpleData name="Monto">914316.00000000000</SimpleData>
            <SimpleData name="Estado_del">Activo</SimpleData>
            <SimpleData name="Empresa">Hyh Consultores SRL</SimpleData>
            <SimpleData name="Lote">Lote 1</SimpleData>
            <SimpleData name="Fecha_de_M">-</SimpleData>
            <SimpleData name="F__de_pren">-</SimpleData>
            <SimpleData name="Estado_FAO">Monitorear</SimpleData>
            <SimpleData name="Etapa_de_i">Mantenimiento A?o 2</SimpleData>
            <SimpleData name="Fecha_visi">2026/09/12</SimpleData>
            <SimpleData name="Cumple_sup">-</SimpleData>
            <SimpleData name="Estado_mon">-</SimpleData>
            <SimpleData name="Situaci_12">-</SimpleData>
            <SimpleData name="Observaci">-</SimpleData>
            <SimpleData name="Dias_trans">8.35560185185</SimpleData>
            <SimpleData name="Prioridad">ALTA</SimpleData>
          </SchemaData>
        </ExtendedData>
        <Polygon>
          <outerBoundaryIs>
            <LinearRing>
              <coordinates>
                -56.1613532993108,-24.4312467011636,0
                -56.1615358990113,-24.4315232992349,0
                -56.162813099605,-24.4311549999203,0
                -56.1623225993468,-24.4306120016877,0
                -56.1613532993108,-24.4312467011636,0
              </coordinates>
            </LinearRing>
          </outerBoundaryIs>
        </Polygon>
      </Placemark>
      <Placemark id="Distrito_YRYBUCUA.4">
        <ExtendedData>
          <SchemaData schemaUrl="#Distrito_YRYBUCUA.schema">
            <SimpleData name="Cédula">5710084.00000000000</SimpleData>
            <SimpleData name="cedula">5710084</SimpleData>
            <SimpleData name="N_">1465.00000000000</SimpleData>
            <SimpleData name="Nombres_y_">MARIA MERCEDES AGUILAR PANIAGUA</SimpleData>
            <SimpleData name="Sexo">Mujer</SimpleData>
            <SimpleData name="Cambio_de_">NO</SimpleData>
            <SimpleData name="Titular_se">NO</SimpleData>
            <SimpleData name="Situación">NO</SimpleData>
            <SimpleData name="Comunidad">Campesina</SimpleData>
            <SimpleData name="Modelo_imp">Modelo 5</SimpleData>
            <SimpleData name="Departamen">SAN PEDRO</SimpleData>
            <SimpleData name="Distrito">YRYBUCUA</SimpleData>
            <SimpleData name="Localidad"><![CDATA[VY'A RENDA]]></SimpleData>
            <SimpleData name="Teléfono">ND</SimpleData>
            <SimpleData name="Vivienda_L">-24.48171330000</SimpleData>
            <SimpleData name="Vivienda_1">-56.17543010000</SimpleData>
            <SimpleData name="Superficie">0.70000000000</SimpleData>
            <SimpleData name="Situaci_1">Pol?gono</SimpleData>
            <SimpleData name="Plantado">Si</SimpleData>
            <SimpleData name="Parcela_La">-24.47702143000</SimpleData>
            <SimpleData name="Parcela_Lo">-56.17081420000</SimpleData>
            <SimpleData name="Grupo_Impl">G1</SimpleData>
            <SimpleData name="Grupo_de_P">Lote 1-P5-P1P1-P1P1-XX</SimpleData>
            <SimpleData name="Jornales">8.00000000000</SimpleData>
            <SimpleData name="Monto">914316.00000000000</SimpleData>
            <SimpleData name="Estado_del">Activo</SimpleData>
            <SimpleData name="Empresa">Hyh Consultores SRL</SimpleData>
            <SimpleData name="Lote">Lote 1</SimpleData>
            <SimpleData name="Fecha_de_M">-</SimpleData>
            <SimpleData name="F__de_pren">-</SimpleData>
            <SimpleData name="Estado_FAO">Monitorear</SimpleData>
            <SimpleData name="Etapa_de_i">Mantenimiento A?o 2</SimpleData>
            <SimpleData name="Fecha_visi">2026/08/25</SimpleData>
            <SimpleData name="Cumple_sup">-</SimpleData>
            <SimpleData name="Estado_mon">-</SimpleData>
            <SimpleData name="Situaci_12">-</SimpleData>
            <SimpleData name="Observaci">-</SimpleData>
            <SimpleData name="Dias_trans">26.49785879630</SimpleData>
            <SimpleData name="Prioridad">ALTA</SimpleData>
          </SchemaData>
        </ExtendedData>
        <Polygon>
          <outerBoundaryIs>
            <LinearRing>
              <coordinates>
                -56.1701541000233,-24.4768028996929,0
                -56.1709220984605,-24.4775808000757,0
                -56.1714734001901,-24.4773142009322,0
                -56.1707283009441,-24.4764333001647,0
                -56.1701541000233,-24.4768028996929,0
              </coordinates>
            </LinearRing>
          </outerBoundaryIs>
        </Polygon>
      </Placemark>
      <Placemark id="Distrito_YRYBUCUA.5">
        <ExtendedData>
          <SchemaData schemaUrl="#Distrito_YRYBUCUA.schema">
            <SimpleData name="Cédula">5553711.00000000000</SimpleData>
            <SimpleData name="cedula">5553711</SimpleData>
            <SimpleData name="N_">1461.00000000000</SimpleData>
            <SimpleData name="Nombres_y_">ROCIO ZARACHO ESPINOLA</SimpleData>
            <SimpleData name="Sexo">Mujer</SimpleData>
            <SimpleData name="Cambio_de_">NO</SimpleData>
            <SimpleData name="Titular_se">NO</SimpleData>
            <SimpleData name="Situación">NO</SimpleData>
            <SimpleData name="Comunidad">Campesina</SimpleData>
            <SimpleData name="Modelo_imp">Modelo 5</SimpleData>
            <SimpleData name="Departamen">SAN PEDRO</SimpleData>
            <SimpleData name="Distrito">YRYBUCUA</SimpleData>
            <SimpleData name="Localidad"><![CDATA[VY'A RENDA]]></SimpleData>
            <SimpleData name="Teléfono">0986160240</SimpleData>
            <SimpleData name="Vivienda_L">-24.49331180000</SimpleData>
            <SimpleData name="Vivienda_1">-56.20436670000</SimpleData>
            <SimpleData name="Superficie">0.70000000000</SimpleData>
            <SimpleData name="Situaci_1">Pol?gono</SimpleData>
            <SimpleData name="Plantado">Si</SimpleData>
            <SimpleData name="Parcela_La">-24.49313639000</SimpleData>
            <SimpleData name="Parcela_Lo">-56.20528673000</SimpleData>
            <SimpleData name="Grupo_Impl">G1</SimpleData>
            <SimpleData name="Grupo_de_P">Lote 1-P5-P1P1-P1P1-XX</SimpleData>
            <SimpleData name="Jornales">8.00000000000</SimpleData>
            <SimpleData name="Monto">914316.00000000000</SimpleData>
            <SimpleData name="Estado_del">Activo</SimpleData>
            <SimpleData name="Empresa">Hyh Consultores SRL</SimpleData>
            <SimpleData name="Lote">Lote 1</SimpleData>
            <SimpleData name="Fecha_de_M">-</SimpleData>
            <SimpleData name="F__de_pren">-</SimpleData>
            <SimpleData name="Estado_FAO">Monitorear</SimpleData>
            <SimpleData name="Etapa_de_i">Mantenimiento A?o 2</SimpleData>
            <SimpleData name="Fecha_visi">2026/08/25</SimpleData>
            <SimpleData name="Cumple_sup">-</SimpleData>
            <SimpleData name="Estado_mon">-</SimpleData>
            <SimpleData name="Situaci_12">-</SimpleData>
            <SimpleData name="Observaci">-</SimpleData>
            <SimpleData name="Dias_trans">26.49848379630</SimpleData>
            <SimpleData name="Prioridad">ALTA</SimpleData>
          </SchemaData>
        </ExtendedData>
        <Polygon>
          <outerBoundaryIs>
            <LinearRing>
              <coordinates>
                -56.2047266006308,-24.4934008998386,0
                -56.2056523995823,-24.4935626007609,0
                -56.2058166997921,-24.4928233006281,0
                -56.2049228995598,-24.4927415005958,0
                -56.2047266006308,-24.4934008998386,0
              </coordinates>
            </LinearRing>
          </outerBoundaryIs>
        </Polygon>
      </Placemark>
      <Placemark id="Distrito_YRYBUCUA.6">
        <ExtendedData>
          <SchemaData schemaUrl="#Distrito_YRYBUCUA.schema">
            <SimpleData name="Cédula">2925325.00000000000</SimpleData>
            <SimpleData name="cedula">2925325</SimpleData>
            <SimpleData name="N_">1329.00000000000</SimpleData>
            <SimpleData name="Nombres_y_">BASILISA GAVILAN LEZCANO</SimpleData>
            <SimpleData name="Sexo">Mujer</SimpleData>
            <SimpleData name="Cambio_de_">NO</SimpleData>
            <SimpleData name="Titular_se">NO</SimpleData>
            <SimpleData name="Situación">NO</SimpleData>
            <SimpleData name="Comunidad">Campesina</SimpleData>
            <SimpleData name="Modelo_imp">Modelo 4</SimpleData>
            <SimpleData name="Departamen">SAN PEDRO</SimpleData>
            <SimpleData name="Distrito">YRYBUCUA</SimpleData>
            <SimpleData name="Localidad">ASENT. 1RA LINEA SANGUINA KUE</SimpleData>
            <SimpleData name="Teléfono">0982588723</SimpleData>
            <SimpleData name="Vivienda_L">-24.57490990000</SimpleData>
            <SimpleData name="Vivienda_1">-56.06416970000</SimpleData>
            <SimpleData name="Superficie">0.90000000000</SimpleData>
            <SimpleData name="Situaci_1">Pol?gono</SimpleData>
            <SimpleData name="Plantado">Si</SimpleData>
            <SimpleData name="Parcela_La">-24.57566239000</SimpleData>
            <SimpleData name="Parcela_Lo">-56.06370479000</SimpleData>
            <SimpleData name="Grupo_Impl">G1</SimpleData>
            <SimpleData name="Grupo_de_P">Lote 1-P3-XX-XX-XX</SimpleData>
            <SimpleData name="Jornales">4.00000000000</SimpleData>
            <SimpleData name="Monto">446008.00000000000</SimpleData>
            <SimpleData name="Estado_del">Activo</SimpleData>
            <SimpleData name="Empresa">Hyh Consultores SRL</SimpleData>
            <SimpleData name="Lote">Lote 1</SimpleData>
            <SimpleData name="Fecha_de_M">-</SimpleData>
            <SimpleData name="F__de_pren">-</SimpleData>
            <SimpleData name="Estado_FAO">Verificar posible desercion</SimpleData>
            <SimpleData name="Etapa_de_i">Mantenimiento A?o 1.2</SimpleData>
            <SimpleData name="Fecha_visi">2026/09/14</SimpleData>
            <SimpleData name="Cumple_sup">-</SimpleData>
            <SimpleData name="Estado_mon">-</SimpleData>
            <SimpleData name="Situaci_12">-</SimpleData>
            <SimpleData name="Observaci">;No vio resultado;Parcela abandonada picada cerrada</SimpleData>
            <SimpleData name="Dias_trans">6.74758476852</SimpleData>
            <SimpleData name="Prioridad">ALTA</SimpleData>
          </SchemaData>
        </ExtendedData>
        <Polygon>
          <outerBoundaryIs>
            <LinearRing>
              <coordinates>
                -56.0636646994379,-24.57650160029,0
                -56.0639606995293,-24.5767302017767,0
                -56.0640221003306,-24.5751129006108,0
                -56.0635373001443,-24.5748971008814,0
                -56.0631711011825,-24.5757551006252,0
                -56.063778499879,-24.5759787004081,0
                -56.0636646994379,-24.57650160029,0
              </coordinates>
            </LinearRing>
          </outerBoundaryIs>
        </Polygon>
      </Placemark>
      <Placemark id="Distrito_YRYBUCUA.7">
        <ExtendedData>
          <SchemaData schemaUrl="#Distrito_YRYBUCUA.schema">
            <SimpleData name="Cédula">5402413.00000000000</SimpleData>
            <SimpleData name="cedula">5402413</SimpleData>
            <SimpleData name="N_">1331.00000000000</SimpleData>
            <SimpleData name="Nombres_y_">NILDA ARMOA MARTINEZ</SimpleData>
            <SimpleData name="Sexo">Mujer</SimpleData>
            <SimpleData name="Cambio_de_">NO</SimpleData>
            <SimpleData name="Titular_se">NO</SimpleData>
            <SimpleData name="Situación">NO</SimpleData>
            <SimpleData name="Comunidad">Campesina</SimpleData>
            <SimpleData name="Modelo_imp">Modelo 1</SimpleData>
            <SimpleData name="Departamen">SAN PEDRO</SimpleData>
            <SimpleData name="Distrito">YRYBUCUA</SimpleData>
            <SimpleData name="Localidad">ASENT. JUSTO VILLANUEVA</SimpleData>
            <SimpleData name="Teléfono">0975259811</SimpleData>
            <SimpleData name="Vivienda_L">-24.48262080000</SimpleData>
            <SimpleData name="Vivienda_1">-56.15658040000</SimpleData>
            <SimpleData name="Superficie">0.90000000000</SimpleData>
            <SimpleData name="Situaci_1">Pol?gono</SimpleData>
            <SimpleData name="Plantado">Si</SimpleData>
            <SimpleData name="Parcela_La">-24.48247031000</SimpleData>
            <SimpleData name="Parcela_Lo">-56.15640831000</SimpleData>
            <SimpleData name="Grupo_Impl">G1</SimpleData>
            <SimpleData name="Grupo_de_P">Lote 1-P1-P1P1-P1P1-XX</SimpleData>
            <SimpleData name="Jornales">8.00000000000</SimpleData>
            <SimpleData name="Monto">914316.00000000000</SimpleData>
            <SimpleData name="Estado_del">Activo</SimpleData>
            <SimpleData name="Empresa">Hyh Consultores SRL</SimpleData>
            <SimpleData name="Lote">Lote 1</SimpleData>
            <SimpleData name="Fecha_de_M">-</SimpleData>
            <SimpleData name="F__de_pren">-</SimpleData>
            <SimpleData name="Estado_FAO">Monitorear</SimpleData>
            <SimpleData name="Etapa_de_i">Mantenimiento A?o 2</SimpleData>
            <SimpleData name="Fecha_visi">2026/08/26</SimpleData>
            <SimpleData name="Cumple_sup">-</SimpleData>
            <SimpleData name="Estado_mon">-</SimpleData>
            <SimpleData name="Situaci_12">-</SimpleData>
            <SimpleData name="Observaci">-</SimpleData>
            <SimpleData name="Dias_trans">25.01910879630</SimpleData>
            <SimpleData name="Prioridad">ALTA</SimpleData>
          </SchemaData>
        </ExtendedData>
        <MultiGeometry>
          <Polygon>
            <outerBoundaryIs>
              <LinearRing>
                <coordinates>
                  -56.1569683000369,-24.4827549999339,0
                  -56.1572430016017,-24.4827868996977,0
                  -56.1572231996334,-24.4822768995399,0
                  -56.1569763002871,-24.4823215008715,0
                  -56.1569683000369,-24.4827549999339,0
                </coordinates>
              </LinearRing>
            </outerBoundaryIs>
          </Polygon>
          <Polygon>
            <outerBoundaryIs>
              <LinearRing>
                <coordinates>
                  -56.1558366998645,-24.4821066998357,0
                  -56.1558935997467,-24.4829312995965,0
                  -56.1565910003388,-24.4828807999645,0
                  -56.1565165000509,-24.4824553999687,0
                  -56.1568367996913,-24.4824044005821,0
                  -56.1568038001545,-24.4820544015263,0
                  -56.1558366998645,-24.4821066998357,0
                </coordinates>
              </LinearRing>
            </outerBoundaryIs>
          </Polygon>
        </MultiGeometry>
      </Placemark>
      <Placemark id="Distrito_YRYBUCUA.8">
        <ExtendedData>
          <SchemaData schemaUrl="#Distrito_YRYBUCUA.schema">
            <SimpleData name="Cédula">5545487.00000000000</SimpleData>
            <SimpleData name="cedula">5545487</SimpleData>
            <SimpleData name="N_">1475.00000000000</SimpleData>
            <SimpleData name="Nombres_y_">MIGUELINA CARDOZO OLIVEIRA</SimpleData>
            <SimpleData name="Sexo">Mujer</SimpleData>
            <SimpleData name="Cambio_de_">NO</SimpleData>
            <SimpleData name="Titular_se">NO</SimpleData>
            <SimpleData name="Situación">NO</SimpleData>
            <SimpleData name="Comunidad">Campesina</SimpleData>
            <SimpleData name="Modelo_imp">Modelo 5</SimpleData>
            <SimpleData name="Departamen">SAN PEDRO</SimpleData>
            <SimpleData name="Distrito">YRYBUCUA</SimpleData>
            <SimpleData name="Localidad">YVU PORA</SimpleData>
            <SimpleData name="Teléfono">0972974106</SimpleData>
            <SimpleData name="Vivienda_L">-24.46804000000</SimpleData>
            <SimpleData name="Vivienda_1">-56.03482830000</SimpleData>
            <SimpleData name="Superficie">0.80000000000</SimpleData>
            <SimpleData name="Situaci_1">Pol?gono</SimpleData>
            <SimpleData name="Plantado">Si</SimpleData>
            <SimpleData name="Parcela_La">-24.46740766000</SimpleData>
            <SimpleData name="Parcela_Lo">-56.03357590000</SimpleData>
            <SimpleData name="Grupo_Impl">G1</SimpleData>
            <SimpleData name="Grupo_de_P">Lote 1-P3-XX-XX-XX</SimpleData>
            <SimpleData name="Jornales">4.00000000000</SimpleData>
            <SimpleData name="Monto">446008.00000000000</SimpleData>
            <SimpleData name="Estado_del">Activo</SimpleData>
            <SimpleData name="Empresa">Hyh Consultores SRL</SimpleData>
            <SimpleData name="Lote">Lote 1</SimpleData>
            <SimpleData name="Fecha_de_M">-</SimpleData>
            <SimpleData name="F__de_pren">-</SimpleData>
            <SimpleData name="Estado_FAO">Monitorear</SimpleData>
            <SimpleData name="Etapa_de_i">Mantenimiento A?o 1.2</SimpleData>
            <SimpleData name="Fecha_visi">2026/09/09</SimpleData>
            <SimpleData name="Cumple_sup">-</SimpleData>
            <SimpleData name="Estado_mon">-</SimpleData>
            <SimpleData name="Situaci_12">-</SimpleData>
            <SimpleData name="Observaci">-</SimpleData>
            <SimpleData name="Dias_trans">11.57483796300</SimpleData>
            <SimpleData name="Prioridad">ALTA</SimpleData>
          </SchemaData>
        </ExtendedData>
        <Polygon>
          <outerBoundaryIs>
            <LinearRing>
              <coordinates>
                -56.0331153998649,-24.4678002006409,0
                -56.0340106000923,-24.4678525012663,0
                -56.0339870002958,-24.4669648004952,0
                -56.033166100376,-24.4669877997086,0
                -56.0331153998649,-24.4678002006409,0
              </coordinates>
            </LinearRing>
          </outerBoundaryIs>
        </Polygon>
      </Placemark>
      <Placemark id="Distrito_YRYBUCUA.9">
        <ExtendedData>
          <SchemaData schemaUrl="#Distrito_YRYBUCUA.schema">
            <SimpleData name="Cédula">7256554.00000000000</SimpleData>
            <SimpleData name="cedula">7256554</SimpleData>
            <SimpleData name="N_">1467.00000000000</SimpleData>
            <SimpleData name="Nombres_y_">LIZ MARIELA MALDONADO LLANES</SimpleData>
            <SimpleData name="Sexo">Mujer</SimpleData>
            <SimpleData name="Cambio_de_">NO</SimpleData>
            <SimpleData name="Titular_se">NO</SimpleData>
            <SimpleData name="Situación">NO</SimpleData>
            <SimpleData name="Comunidad">Campesina</SimpleData>
            <SimpleData name="Modelo_imp">Modelo 6</SimpleData>
            <SimpleData name="Departamen">SAN PEDRO</SimpleData>
            <SimpleData name="Distrito">YRYBUCUA</SimpleData>
            <SimpleData name="Localidad"><![CDATA[VY'A RENDA]]></SimpleData>
            <SimpleData name="Teléfono">0985935151</SimpleData>
            <SimpleData name="Vivienda_L">-24.49527860000</SimpleData>
            <SimpleData name="Vivienda_1">-56.17906460000</SimpleData>
            <SimpleData name="Superficie">0.90000000000</SimpleData>
            <SimpleData name="Situaci_1">Pol?gono</SimpleData>
            <SimpleData name="Plantado">Si</SimpleData>
            <SimpleData name="Parcela_La">-24.49679109000</SimpleData>
            <SimpleData name="Parcela_Lo">-56.17989155000</SimpleData>
            <SimpleData name="Grupo_Impl">G1</SimpleData>
            <SimpleData name="Grupo_de_P">Lote 1-P1-XX-XX-XX</SimpleData>
            <SimpleData name="Jornales">0.00000000000</SimpleData>
            <SimpleData name="Monto">0.00000000000</SimpleData>
            <SimpleData name="Estado_del">Activo</SimpleData>
            <SimpleData name="Empresa">Hyh Consultores SRL</SimpleData>
            <SimpleData name="Lote">Lote 1</SimpleData>
            <SimpleData name="Fecha_de_M">-</SimpleData>
            <SimpleData name="F__de_pren">-</SimpleData>
            <SimpleData name="Estado_FAO">Monitorear</SimpleData>
            <SimpleData name="Etapa_de_i">Mantenimiento A?o 1.2</SimpleData>
            <SimpleData name="Fecha_visi">2026/09/12</SimpleData>
            <SimpleData name="Cumple_sup">-</SimpleData>
            <SimpleData name="Estado_mon">-</SimpleData>
            <SimpleData name="Situaci_12">-</SimpleData>
            <SimpleData name="Observaci">-</SimpleData>
            <SimpleData name="Dias_trans">8.35555555556</SimpleData>
            <SimpleData name="Prioridad">ALTA</SimpleData>
          </SchemaData>
        </ExtendedData>
        <Polygon>
          <outerBoundaryIs>
            <LinearRing>
              <coordinates>
                -56.1792575009159,-24.4966640001226,0
                -56.1797750000138,-24.4974200002164,0
                -56.1797857823564,-24.4974125440205,0
                -56.180507300207,-24.4969136007475,0
                -56.1800450002043,-24.4961699999598,0
                -56.1796838769143,-24.49639653321,0
                -56.1792575009159,-24.4966640001226,0
              </coordinates>
            </LinearRing>
          </outerBoundaryIs>
        </Polygon>
      </Placemark>
      <Placemark id="Distrito_YRYBUCUA.10">
        <ExtendedData>
          <SchemaData schemaUrl="#Distrito_YRYBUCUA.schema">
            <SimpleData name="Cédula">5482729.00000000000</SimpleData>
            <SimpleData name="cedula">5482729</SimpleData>
            <SimpleData name="N_">1334.00000000000</SimpleData>
            <SimpleData name="Nombres_y_">AIDA COLLANTE CUEVAS</SimpleData>
            <SimpleData name="Sexo">Mujer</SimpleData>
            <SimpleData name="Cambio_de_">NO</SimpleData>
            <SimpleData name="Titular_se">NO</SimpleData>
            <SimpleData name="Situación">NO</SimpleData>
            <SimpleData name="Comunidad">Campesina</SimpleData>
            <SimpleData name="Modelo_imp">Modelo 1</SimpleData>
            <SimpleData name="Departamen">SAN PEDRO</SimpleData>
            <SimpleData name="Distrito">YRYBUCUA</SimpleData>
            <SimpleData name="Localidad">ASENT. JUSTO VILLANUEVA LUZ BELLA</SimpleData>
            <SimpleData name="Teléfono">0971590779</SimpleData>
            <SimpleData name="Vivienda_L">-24.48159880000</SimpleData>
            <SimpleData name="Vivienda_1">-56.17713650000</SimpleData>
            <SimpleData name="Superficie">1.00000000000</SimpleData>
            <SimpleData name="Situaci_1">Pol?gono</SimpleData>
            <SimpleData name="Plantado">Si</SimpleData>
            <SimpleData name="Parcela_La">-24.47743479000</SimpleData>
            <SimpleData name="Parcela_Lo">-56.17660181000</SimpleData>
            <SimpleData name="Grupo_Impl">G1</SimpleData>
            <SimpleData name="Grupo_de_P">Lote 1-P3-P1P1-P1P1-XX</SimpleData>
            <SimpleData name="Jornales">8.00000000000</SimpleData>
            <SimpleData name="Monto">914316.00000000000</SimpleData>
            <SimpleData name="Estado_del">Activo</SimpleData>
            <SimpleData name="Empresa">Hyh Consultores SRL</SimpleData>
            <SimpleData name="Lote">Lote 1</SimpleData>
            <SimpleData name="Fecha_de_M">-</SimpleData>
            <SimpleData name="F__de_pren">-</SimpleData>
            <SimpleData name="Estado_FAO">Monitorear</SimpleData>
            <SimpleData name="Etapa_de_i">Mantenimiento A?o 2</SimpleData>
            <SimpleData name="Fecha_visi">2026/08/26</SimpleData>
            <SimpleData name="Cumple_sup">-</SimpleData>
            <SimpleData name="Estado_mon">-</SimpleData>
            <SimpleData name="Situaci_12">-</SimpleData>
            <SimpleData name="Observaci">-</SimpleData>
            <SimpleData name="Dias_trans">25.01900462960</SimpleData>
            <SimpleData name="Prioridad">ALTA</SimpleData>
          </SchemaData>
        </ExtendedData>
        <Polygon>
          <outerBoundaryIs>
            <LinearRing>
              <coordinates>
                -56.1761667000786,-24.4767350006589,0
                -56.1764523000559,-24.4782508011994,0
                -56.1769985999011,-24.4781697003197,0
                -56.1768036998347,-24.4766585013055,0
                -56.1761667000786,-24.4767350006589,0
              </coordinates>
            </LinearRing>
          </outerBoundaryIs>
        </Polygon>
      </Placemark>
      <Placemark id="Distrito_YRYBUCUA.11">
        <ExtendedData>
          <SchemaData schemaUrl="#Distrito_YRYBUCUA.schema">
            <SimpleData name="Cédula">4312311.00000000000</SimpleData>
            <SimpleData name="cedula">4312311</SimpleData>
            <SimpleData name="N_">1458.00000000000</SimpleData>
            <SimpleData name="Nombres_y_">PETRONILA PEREZ</SimpleData>
            <SimpleData name="Sexo">Mujer</SimpleData>
            <SimpleData name="Cambio_de_">NO</SimpleData>
            <SimpleData name="Titular_se">NO</SimpleData>
            <SimpleData name="Situación">NO</SimpleData>
            <SimpleData name="Comunidad">Campesina</SimpleData>
            <SimpleData name="Modelo_imp">Modelo 5</SimpleData>
            <SimpleData name="Departamen">SAN PEDRO</SimpleData>
            <SimpleData name="Distrito">YRYBUCUA</SimpleData>
            <SimpleData name="Localidad"><![CDATA[VY'A RENDA]]></SimpleData>
            <SimpleData name="Teléfono">0971723448</SimpleData>
            <SimpleData name="Vivienda_L">-24.48164530000</SimpleData>
            <SimpleData name="Vivienda_1">-56.17760150000</SimpleData>
            <SimpleData name="Superficie">0.80000000000</SimpleData>
            <SimpleData name="Situaci_1">Pol?gono</SimpleData>
            <SimpleData name="Plantado">Si</SimpleData>
            <SimpleData name="Parcela_La">-24.47700680000</SimpleData>
            <SimpleData name="Parcela_Lo">-56.17775265000</SimpleData>
            <SimpleData name="Grupo_Impl">G1</SimpleData>
            <SimpleData name="Grupo_de_P">Lote 1-P1-P1P1-P1P1-XX</SimpleData>
            <SimpleData name="Jornales">8.00000000000</SimpleData>
            <SimpleData name="Monto">914316.00000000000</SimpleData>
            <SimpleData name="Estado_del">Activo</SimpleData>
            <SimpleData name="Empresa">Hyh Consultores SRL</SimpleData>
            <SimpleData name="Lote">Lote 1</SimpleData>
            <SimpleData name="Fecha_de_M">-</SimpleData>
            <SimpleData name="F__de_pren">-</SimpleData>
            <SimpleData name="Estado_FAO">Monitorear</SimpleData>
            <SimpleData name="Etapa_de_i">Mantenimiento A?o 2</SimpleData>
            <SimpleData name="Fecha_visi">2026/08/25</SimpleData>
            <SimpleData name="Cumple_sup">-</SimpleData>
            <SimpleData name="Estado_mon">-</SimpleData>
            <SimpleData name="Situaci_12">-</SimpleData>
            <SimpleData name="Observaci">-</SimpleData>
            <SimpleData name="Dias_trans">26.49788194440</SimpleData>
            <SimpleData name="Prioridad">ALTA</SimpleData>
          </SchemaData>
        </ExtendedData>
        <Polygon>
          <outerBoundaryIs>
            <LinearRing>
              <coordinates>
                -56.1775048000333,-24.4776034999752,0
                -56.1780332995733,-24.4776182999402,0
                -56.1780400002965,-24.4764417004656,0
                -56.1774350997136,-24.4764167003992,0
                -56.1775048000333,-24.4776034999752,0
              </coordinates>
            </LinearRing>
          </outerBoundaryIs>
        </Polygon>
      </Placemark>
      <Placemark id="Distrito_YRYBUCUA.12">
        <ExtendedData>
          <SchemaData schemaUrl="#Distrito_YRYBUCUA.schema">
            <SimpleData name="Cédula">3586774.00000000000</SimpleData>
            <SimpleData name="cedula">3586774</SimpleData>
            <SimpleData name="N_">1484.00000000000</SimpleData>
            <SimpleData name="Nombres_y_">EVA PAVON DE GARCIA</SimpleData>
            <SimpleData name="Sexo">Mujer</SimpleData>
            <SimpleData name="Cambio_de_">NO</SimpleData>
            <SimpleData name="Titular_se">NO</SimpleData>
            <SimpleData name="Situación">NO</SimpleData>
            <SimpleData name="Comunidad">Campesina</SimpleData>
            <SimpleData name="Modelo_imp">Modelo 3</SimpleData>
            <SimpleData name="Departamen">SAN PEDRO</SimpleData>
            <SimpleData name="Distrito">YRYBUCUA</SimpleData>
            <SimpleData name="Localidad">YVU PORA</SimpleData>
            <SimpleData name="Teléfono">0971233415</SimpleData>
            <SimpleData name="Vivienda_L">-24.50878870000</SimpleData>
            <SimpleData name="Vivienda_1">-55.99875540000</SimpleData>
            <SimpleData name="Superficie">1.00000000000</SimpleData>
            <SimpleData name="Situaci_1">Pol?gono</SimpleData>
            <SimpleData name="Plantado">Si</SimpleData>
            <SimpleData name="Parcela_La">-24.51653426000</SimpleData>
            <SimpleData name="Parcela_Lo">-55.99815313000</SimpleData>
            <SimpleData name="Grupo_Impl">G1</SimpleData>
            <SimpleData name="Grupo_de_P">Lote 1-P3-P1P1-P1P1-XX</SimpleData>
            <SimpleData name="Jornales">8.00000000000</SimpleData>
            <SimpleData name="Monto">914316.00000000000</SimpleData>
            <SimpleData name="Estado_del">Activo</SimpleData>
            <SimpleData name="Empresa">Hyh Consultores SRL</SimpleData>
            <SimpleData name="Lote">Lote 1</SimpleData>
            <SimpleData name="Fecha_de_M">-</SimpleData>
            <SimpleData name="F__de_pren">-</SimpleData>
            <SimpleData name="Estado_FAO">Monitorear</SimpleData>
            <SimpleData name="Etapa_de_i">Mantenimiento A?o 2</SimpleData>
            <SimpleData name="Fecha_visi">2026/09/09</SimpleData>
            <SimpleData name="Cumple_sup">-</SimpleData>
            <SimpleData name="Estado_mon">-</SimpleData>
            <SimpleData name="Situaci_12">-</SimpleData>
            <SimpleData name="Observaci">-</SimpleData>
            <SimpleData name="Dias_trans">11.57488425930</SimpleData>
            <SimpleData name="Prioridad">ALTA</SimpleData>
          </SchemaData>
        </ExtendedData>
        <Polygon>
          <outerBoundaryIs>
            <LinearRing>
              <coordinates>
                -55.9976801997842,-24.516617401016,0
                -55.9978960017438,-24.5171129000664,0
                -55.9986566014789,-24.516868700128,0
                -55.9987613830572,-24.5161958574971,0
                -55.9975094356035,-24.5160669506655,0
                -55.9976801997842,-24.516617401016,0
              </coordinates>
            </LinearRing>
          </outerBoundaryIs>
        </Polygon>
      </Placemark>
      <Placemark id="Distrito_YRYBUCUA.13">
        <ExtendedData>
          <SchemaData schemaUrl="#Distrito_YRYBUCUA.schema">
            <SimpleData name="Cédula">6108750.00000000000</SimpleData>
            <SimpleData name="cedula">6108750</SimpleData>
            <SimpleData name="N_">1459.00000000000</SimpleData>
            <SimpleData name="Nombres_y_">MARIA VERONICA ARCE AYALA</SimpleData>
            <SimpleData name="Sexo">Mujer</SimpleData>
            <SimpleData name="Cambio_de_">NO</SimpleData>
            <SimpleData name="Titular_se">NO</SimpleData>
            <SimpleData name="Situación">NO</SimpleData>
            <SimpleData name="Comunidad">Campesina</SimpleData>
            <SimpleData name="Modelo_imp">Modelo 5</SimpleData>
            <SimpleData name="Departamen">SAN PEDRO</SimpleData>
            <SimpleData name="Distrito">YRYBUCUA</SimpleData>
            <SimpleData name="Localidad"><![CDATA[VY'A RENDA]]></SimpleData>
            <SimpleData name="Teléfono">0975484613</SimpleData>
            <SimpleData name="Vivienda_L">-24.49626650000</SimpleData>
            <SimpleData name="Vivienda_1">-56.17708370000</SimpleData>
            <SimpleData name="Superficie">0.80000000000</SimpleData>
            <SimpleData name="Situaci_1">Pol?gono</SimpleData>
            <SimpleData name="Plantado">Si</SimpleData>
            <SimpleData name="Parcela_La">-24.49527033000</SimpleData>
            <SimpleData name="Parcela_Lo">-56.17659963000</SimpleData>
            <SimpleData name="Grupo_Impl">G1</SimpleData>
            <SimpleData name="Grupo_de_P">Lote 1-P3-P1P1-P1P1-XX</SimpleData>
            <SimpleData name="Jornales">8.00000000000</SimpleData>
            <SimpleData name="Monto">914316.00000000000</SimpleData>
            <SimpleData name="Estado_del">Activo</SimpleData>
            <SimpleData name="Empresa">Hyh Consultores SRL</SimpleData>
            <SimpleData name="Lote">Lote 1</SimpleData>
            <SimpleData name="Fecha_de_M">-</SimpleData>
            <SimpleData name="F__de_pren">-</SimpleData>
            <SimpleData name="Estado_FAO">Monitorear</SimpleData>
            <SimpleData name="Etapa_de_i">Mantenimiento A?o 2</SimpleData>
            <SimpleData name="Fecha_visi">2026/08/25</SimpleData>
            <SimpleData name="Cumple_sup">-</SimpleData>
            <SimpleData name="Estado_mon">-</SimpleData>
            <SimpleData name="Situaci_12">-</SimpleData>
            <SimpleData name="Observaci">-</SimpleData>
            <SimpleData name="Dias_trans">26.49846064810</SimpleData>
            <SimpleData name="Prioridad">ALTA</SimpleData>
          </SchemaData>
        </ExtendedData>
        <Polygon>
          <outerBoundaryIs>
            <LinearRing>
              <coordinates>
                -56.1759991003117,-24.495182700264,0
                -56.1764676005816,-24.495816399662,0
                -56.1771726015992,-24.4954115014864,0
                -56.1767643993175,-24.4947012007362,0
                -56.1759991003117,-24.495182700264,0
              </coordinates>
            </LinearRing>
          </outerBoundaryIs>
        </Polygon>
      </Placemark>
      <Placemark id="Distrito_YRYBUCUA.14">
        <ExtendedData>
          <SchemaData schemaUrl="#Distrito_YRYBUCUA.schema">
            <SimpleData name="Cédula">7871033.00000000000</SimpleData>
            <SimpleData name="cedula">7871033</SimpleData>
            <SimpleData name="N_">1438.00000000000</SimpleData>
            <SimpleData name="Nombres_y_">NORMA DOMINGUEZ BENITEZ</SimpleData>
            <SimpleData name="Sexo">Mujer</SimpleData>
            <SimpleData name="Cambio_de_">NO</SimpleData>
            <SimpleData name="Titular_se">NO</SimpleData>
            <SimpleData name="Situación">NO</SimpleData>
            <SimpleData name="Comunidad">Campesina</SimpleData>
            <SimpleData name="Modelo_imp">Modelo 1</SimpleData>
            <SimpleData name="Departamen">SAN PEDRO</SimpleData>
            <SimpleData name="Distrito">YRYBUCUA</SimpleData>
            <SimpleData name="Localidad">NUEVO HORIZONTE</SimpleData>
            <SimpleData name="Teléfono">0972934221</SimpleData>
            <SimpleData name="Vivienda_L">-24.43650930000</SimpleData>
            <SimpleData name="Vivienda_1">-56.15324180000</SimpleData>
            <SimpleData name="Superficie">0.90000000000</SimpleData>
            <SimpleData name="Situaci_1">Pol?gono</SimpleData>
            <SimpleData name="Plantado">Si</SimpleData>
            <SimpleData name="Parcela_La">-24.43661244000</SimpleData>
            <SimpleData name="Parcela_Lo">-56.15261180000</SimpleData>
            <SimpleData name="Grupo_Impl">G1</SimpleData>
            <SimpleData name="Grupo_de_P">Lote 1-P1-P1P1-P1P1-XX</SimpleData>
            <SimpleData name="Jornales">8.00000000000</SimpleData>
            <SimpleData name="Monto">914316.00000000000</SimpleData>
            <SimpleData name="Estado_del">Activo</SimpleData>
            <SimpleData name="Empresa">Hyh Consultores SRL</SimpleData>
            <SimpleData name="Lote">Lote 1</SimpleData>
            <SimpleData name="Fecha_de_M">-</SimpleData>
            <SimpleData name="F__de_pren">-</SimpleData>
            <SimpleData name="Estado_FAO">Monitorear</SimpleData>
            <SimpleData name="Etapa_de_i">Mantenimiento A?o 2</SimpleData>
            <SimpleData name="Fecha_visi">2026/09/10</SimpleData>
            <SimpleData name="Cumple_sup">-</SimpleData>
            <SimpleData name="Estado_mon">-</SimpleData>
            <SimpleData name="Situaci_12">-</SimpleData>
            <SimpleData name="Observaci">-</SimpleData>
            <SimpleData name="Dias_trans">10.47695601850</SimpleData>
            <SimpleData name="Prioridad">ALTA</SimpleData>
          </SchemaData>
        </ExtendedData>
        <Polygon>
          <outerBoundaryIs>
            <LinearRing>
              <coordinates>
                -56.1519532996052,-24.4366017001904,0
                -56.152590000297,-24.4372449999994,0
                -56.1528716995585,-24.4370450005968,0
                -56.1529944003629,-24.4368787005345,0
                -56.1528900004203,-24.4366350000835,0
                -56.15304550042,-24.4365374000061,0
                -56.1531831998628,-24.4364200998829,0
                -56.1528439006942,-24.4359878005636,0
                -56.1519532996052,-24.4366017001904,0
              </coordinates>
            </LinearRing>
          </outerBoundaryIs>
        </Polygon>
      </Placemark>
      <Placemark id="Distrito_YRYBUCUA.15">
        <ExtendedData>
          <SchemaData schemaUrl="#Distrito_YRYBUCUA.schema">
            <SimpleData name="Cédula">5553710.00000000000</SimpleData>
            <SimpleData name="cedula">5553710</SimpleData>
            <SimpleData name="N_">1464.00000000000</SimpleData>
            <SimpleData name="Nombres_y_">VIDALIA ZARACHO ESPINOLA</SimpleData>
            <SimpleData name="Sexo">Mujer</SimpleData>
            <SimpleData name="Cambio_de_">NO</SimpleData>
            <SimpleData name="Titular_se">NO</SimpleData>
            <SimpleData name="Situación">NO</SimpleData>
            <SimpleData name="Comunidad">Campesina</SimpleData>
            <SimpleData name="Modelo_imp">Modelo 5</SimpleData>
            <SimpleData name="Departamen">SAN PEDRO</SimpleData>
            <SimpleData name="Distrito">YRYBUCUA</SimpleData>
            <SimpleData name="Localidad"><![CDATA[VY'A RENDA]]></SimpleData>
            <SimpleData name="Teléfono">0973131291</SimpleData>
            <SimpleData name="Vivienda_L">-24.49396670000</SimpleData>
            <SimpleData name="Vivienda_1">-56.20956870000</SimpleData>
            <SimpleData name="Superficie">0.70000000000</SimpleData>
            <SimpleData name="Situaci_1">Pol?gono</SimpleData>
            <SimpleData name="Plantado">Si</SimpleData>
            <SimpleData name="Parcela_La">-24.49346361000</SimpleData>
            <SimpleData name="Parcela_Lo">-56.20846536000</SimpleData>
            <SimpleData name="Grupo_Impl">G1</SimpleData>
            <SimpleData name="Grupo_de_P">Lote 1-P2-P1P1-P1P1-XX</SimpleData>
            <SimpleData name="Jornales">8.00000000000</SimpleData>
            <SimpleData name="Monto">914316.00000000000</SimpleData>
            <SimpleData name="Estado_del">Activo</SimpleData>
            <SimpleData name="Empresa">Hyh Consultores SRL</SimpleData>
            <SimpleData name="Lote">Lote 1</SimpleData>
            <SimpleData name="Fecha_de_M">-</SimpleData>
            <SimpleData name="F__de_pren">-</SimpleData>
            <SimpleData name="Estado_FAO">Monitorear</SimpleData>
            <SimpleData name="Etapa_de_i">Mantenimiento A?o 2</SimpleData>
            <SimpleData name="Fecha_visi">2026/08/25</SimpleData>
            <SimpleData name="Cumple_sup">-</SimpleData>
            <SimpleData name="Estado_mon">-</SimpleData>
            <SimpleData name="Situaci_12">-</SimpleData>
            <SimpleData name="Observaci">-</SimpleData>
            <SimpleData name="Dias_trans">26.49847222220</SimpleData>
            <SimpleData name="Prioridad">ALTA</SimpleData>
          </SchemaData>
        </ExtendedData>
        <Polygon>
          <outerBoundaryIs>
            <LinearRing>
              <coordinates>
                -56.2080648001175,-24.4938435002275,0
                -56.2087414007289,-24.4939263999069,0
                -56.2089637006217,-24.4931632000883,0
                -56.2080980679146,-24.4929931406804,0
                -56.2080648001175,-24.4938435002275,0
              </coordinates>
            </LinearRing>
          </outerBoundaryIs>
        </Polygon>
      </Placemark>
      <Placemark id="Distrito_YRYBUCUA.16">
        <ExtendedData>
          <SchemaData schemaUrl="#Distrito_YRYBUCUA.schema">
            <SimpleData name="Cédula">6526900.00000000000</SimpleData>
            <SimpleData name="cedula">6526900</SimpleData>
            <SimpleData name="N_">1486.00000000000</SimpleData>
            <SimpleData name="Nombres_y_">ZUNILDA PAVON DE PORTILLO</SimpleData>
            <SimpleData name="Sexo">Mujer</SimpleData>
            <SimpleData name="Cambio_de_">NO</SimpleData>
            <SimpleData name="Titular_se">NO</SimpleData>
            <SimpleData name="Situación">NO</SimpleData>
            <SimpleData name="Comunidad">Campesina</SimpleData>
            <SimpleData name="Modelo_imp">Modelo 1</SimpleData>
            <SimpleData name="Departamen">SAN PEDRO</SimpleData>
            <SimpleData name="Distrito">YRYBUCUA</SimpleData>
            <SimpleData name="Localidad">YVU PORA</SimpleData>
            <SimpleData name="Teléfono">0975374098</SimpleData>
            <SimpleData name="Vivienda_L">-24.44995400000</SimpleData>
            <SimpleData name="Vivienda_1">-56.02706990000</SimpleData>
            <SimpleData name="Superficie">0.80000000000</SimpleData>
            <SimpleData name="Situaci_1">Pol?gono</SimpleData>
            <SimpleData name="Plantado">Si</SimpleData>
            <SimpleData name="Parcela_La">-24.44998037000</SimpleData>
            <SimpleData name="Parcela_Lo">-56.03027984000</SimpleData>
            <SimpleData name="Grupo_Impl">G1</SimpleData>
            <SimpleData name="Grupo_de_P">Lote 1-P1-XX-XX-XX</SimpleData>
            <SimpleData name="Jornales">0.00000000000</SimpleData>
            <SimpleData name="Monto">0.00000000000</SimpleData>
            <SimpleData name="Estado_del">Activo</SimpleData>
            <SimpleData name="Empresa">Hyh Consultores SRL</SimpleData>
            <SimpleData name="Lote">Lote 1</SimpleData>
            <SimpleData name="Fecha_de_M">-</SimpleData>
            <SimpleData name="F__de_pren">-</SimpleData>
            <SimpleData name="Estado_FAO">Monitorear</SimpleData>
            <SimpleData name="Etapa_de_i">Mantenimiento A?o 1.2</SimpleData>
            <SimpleData name="Fecha_visi">2026/09/09</SimpleData>
            <SimpleData name="Cumple_sup">-</SimpleData>
            <SimpleData name="Estado_mon">-</SimpleData>
            <SimpleData name="Situaci_12">-</SimpleData>
            <SimpleData name="Observaci">-</SimpleData>
            <SimpleData name="Dias_trans">11.57481481480</SimpleData>
            <SimpleData name="Prioridad">ALTA</SimpleData>
          </SchemaData>
        </ExtendedData>
        <Polygon>
          <outerBoundaryIs>
            <LinearRing>
              <coordinates>
                -56.029871901472,-24.450421700895,0
                -56.0307167005422,-24.4504284995689,0
                -56.0306419003511,-24.449527000041,0
                -56.0298917001616,-24.449508300248,0
                -56.029871901472,-24.450421700895,0
              </coordinates>
            </LinearRing>
          </outerBoundaryIs>
        </Polygon>
      </Placemark>
    </Document>
  </Document>
</kml>
