<?xml version="1.0" encoding="UTF-8"?>
<kml xmlns="http://www.opengis.net/kml/2.2">
  <Document id="root_doc">
    <Schema id="Distrito_AZOTEY.schema">
      <SimpleField name="Cédula" type="double"/>
      <SimpleField name="cedula" type="string"/>
      <SimpleField name="N_" type="double"/>
      <SimpleField name="Nombres_y_" type="string"/>
      <SimpleField name="Sexo" type="string"/>
      <SimpleField name="Cambio_de_" type="string"/>
      <SimpleField name="Titular_se" type="string"/>
      <SimpleField name="Cédula_Ti" type="string"/>
      <SimpleField name="Situación" type="string"/>
      <SimpleField name="Comunidad" type="string"/>
      <SimpleField name="Modelo_imp" type="string"/>
      <SimpleField name="Departamen" type="string"/>
      <SimpleField name="Distrito" type="string"/>
      <SimpleField name="Localidad" type="string"/>
      <SimpleField name="Teléfono" type="string"/>
      <SimpleField name="Vivienda_L" type="double"/>
      <SimpleField name="Vivienda_1" type="double"/>
      <SimpleField name="Superficie" type="double"/>
      <SimpleField name="Situaci_1" type="string"/>
      <SimpleField name="Plantado" type="string"/>
      <SimpleField name="Parcela_La" type="double"/>
      <SimpleField name="Parcela_Lo" type="double"/>
      <SimpleField name="Grupo_Impl" type="string"/>
      <SimpleField name="Grupo_de_P" type="string"/>
      <SimpleField name="Jornales" type="double"/>
      <SimpleField name="Monto" type="double"/>
      <SimpleField name="Estado_del" type="string"/>
      <SimpleField name="Empresa" type="string"/>
      <SimpleField name="Lote" type="string"/>
      <SimpleField name="Fecha_de_M" type="string"/>
      <SimpleField name="F__de_pren" type="string"/>
      <SimpleField name="Estado_FAO" type="string"/>
      <SimpleField name="Etapa_de_i" type="string"/>
      <SimpleField name="Fecha_visi" type="string"/>
      <SimpleField name="Cumple_sup" type="string"/>
      <SimpleField name="Estado_mon" type="string"/>
      <SimpleField name="Situaci_12" type="string"/>
      <SimpleField name="Observaci" type="string"/>
      <SimpleField name="Dias_trans" type="double"/>
      <SimpleField name="Prioridad" type="string"/>
    </Schema>
    <Document id="Distrito_AZOTEY">
      <name>Distrito_AZOTEY</name>
      <Placemark id="Distrito_AZOTEY.1">
        <ExtendedData>
          <SchemaData schemaUrl="#Distrito_AZOTEY.schema">
            <SimpleData name="Cédula">6148845.00000000000</SimpleData>
            <SimpleData name="cedula">6148845</SimpleData>
            <SimpleData name="N_">8132.00000000000</SimpleData>
            <SimpleData name="Nombres_y_">AGUSTINA ORTELLADO GALEANO</SimpleData>
            <SimpleData name="Sexo">Mujer</SimpleData>
            <SimpleData name="Cambio_de_">NO</SimpleData>
            <SimpleData name="Titular_se">NO</SimpleData>
            <SimpleData name="Situación">NO</SimpleData>
            <SimpleData name="Comunidad">Ind?gena</SimpleData>
            <SimpleData name="Modelo_imp">Modelo 2</SimpleData>
            <SimpleData name="Departamen">CONCEPCION</SimpleData>
            <SimpleData name="Distrito">AZOTEY</SimpleData>
            <SimpleData name="Localidad">COM INDIG VYA PAVE-AZOTEY</SimpleData>
            <SimpleData name="Teléfono">0976146602</SimpleData>
            <SimpleData name="Vivienda_L">-23.32282780000</SimpleData>
            <SimpleData name="Vivienda_1">-56.50655170000</SimpleData>
            <SimpleData name="Superficie">0.80000000000</SimpleData>
            <SimpleData name="Situaci_1">Par?metro</SimpleData>
            <SimpleData name="Plantado">Si</SimpleData>
            <SimpleData name="Parcela_La">-23.32516057000</SimpleData>
            <SimpleData name="Parcela_Lo">-56.50548480000</SimpleData>
            <SimpleData name="Grupo_Impl">G3</SimpleData>
            <SimpleData name="Grupo_de_P">J-P1-XX-XX-XX</SimpleData>
            <SimpleData name="Jornales">0.00000000000</SimpleData>
            <SimpleData name="Monto">0.00000000000</SimpleData>
            <SimpleData name="Estado_del">Activo</SimpleData>
            <SimpleData name="Empresa">Emilio Sol?s Grance</SimpleData>
            <SimpleData name="Lote">J</SimpleData>
            <SimpleData name="Fecha_de_M">-</SimpleData>
            <SimpleData name="F__de_pren">-</SimpleData>
            <SimpleData name="Estado_FAO">Monitorear</SimpleData>
            <SimpleData name="Etapa_de_i">Mantenimiento A?o 1.1</SimpleData>
            <SimpleData name="Fecha_visi">2026/09/16</SimpleData>
            <SimpleData name="Cumple_sup">Si</SimpleData>
            <SimpleData name="Estado_mon">-</SimpleData>
            <SimpleData name="Situaci_12">-</SimpleData>
            <SimpleData name="Observaci">-</SimpleData>
            <SimpleData name="Dias_trans">4.48006944444</SimpleData>
            <SimpleData name="Prioridad">ALTA</SimpleData>
          </SchemaData>
        </ExtendedData>
        <Point>
          <coordinates>
            -56.5054848043189,-23.3251605708212,0
          </coordinates>
        </Point>
      </Placemark>
      <Placemark id="Distrito_AZOTEY.2">
        <ExtendedData>
          <SchemaData schemaUrl="#Distrito_AZOTEY.schema">
            <SimpleData name="Cédula">6609953.00000000000</SimpleData>
            <SimpleData name="cedula">6609953</SimpleData>
            <SimpleData name="N_">8094.00000000000</SimpleData>
            <SimpleData name="Nombres_y_">OSVALDA GARCETE ARCE</SimpleData>
            <SimpleData name="Sexo">Mujer</SimpleData>
            <SimpleData name="Cambio_de_">NO</SimpleData>
            <SimpleData name="Titular_se">NO</SimpleData>
            <SimpleData name="Situación">NO</SimpleData>
            <SimpleData name="Comunidad">Ind?gena</SimpleData>
            <SimpleData name="Modelo_imp">Modelo 1</SimpleData>
            <SimpleData name="Departamen">CONCEPCION</SimpleData>
            <SimpleData name="Distrito">AZOTEY</SimpleData>
            <SimpleData name="Localidad">COM INDIG VYA PAVE-AZOTEY</SimpleData>
            <SimpleData name="Teléfono">0984064525</SimpleData>
            <SimpleData name="Vivienda_L">-23.34240640000</SimpleData>
            <SimpleData name="Vivienda_1">-56.50919970000</SimpleData>
            <SimpleData name="Superficie">0.80000000000</SimpleData>
            <SimpleData name="Situaci_1">Par?metro</SimpleData>
            <SimpleData name="Plantado">Si</SimpleData>
            <SimpleData name="Parcela_La">-23.34225345000</SimpleData>
            <SimpleData name="Parcela_Lo">-56.50764403000</SimpleData>
            <SimpleData name="Grupo_Impl">G3</SimpleData>
            <SimpleData name="Grupo_de_P">J-P1-XX-XX-XX</SimpleData>
            <SimpleData name="Jornales">0.00000000000</SimpleData>
            <SimpleData name="Monto">0.00000000000</SimpleData>
            <SimpleData name="Estado_del">Activo</SimpleData>
            <SimpleData name="Empresa">Emilio Sol?s Grance</SimpleData>
            <SimpleData name="Lote">J</SimpleData>
            <SimpleData name="Fecha_de_M">10/9/2026</SimpleData>
            <SimpleData name="F__de_pren">60</SimpleData>
            <SimpleData name="Estado_FAO">Monitorear reposicion</SimpleData>
            <SimpleData name="Etapa_de_i">Mantenimiento A?o 1.1</SimpleData>
            <SimpleData name="Fecha_visi">2026/09/17</SimpleData>
            <SimpleData name="Cumple_sup">Si</SimpleData>
            <SimpleData name="Estado_mon">?????? NO CUMPLE ??????</SimpleData>
            <SimpleData name="Situaci_12">En el momento del monitoreo se observan plantines de eucaliptos asociados con especies nativa en etapa de desarrollo vegetativo.</SimpleData>
            <SimpleData name="Dias_trans">3.51482638889</SimpleData>
            <SimpleData name="Prioridad">ALTA</SimpleData>
          </SchemaData>
        </ExtendedData>
        <Point>
          <coordinates>
            -56.5076440311297,-23.3422534476392,0
          </coordinates>
        </Point>
      </Placemark>
      <Placemark id="Distrito_AZOTEY.3">
        <ExtendedData>
          <SchemaData schemaUrl="#Distrito_AZOTEY.schema">
            <SimpleData name="Cédula">5219955.00000000000</SimpleData>
            <SimpleData name="cedula">5219955</SimpleData>
            <SimpleData name="N_">8058.00000000000</SimpleData>
            <SimpleData name="Nombres_y_">SONIA GONZALEZ DE MARTINEZ</SimpleData>
            <SimpleData name="Sexo">Mujer</SimpleData>
            <SimpleData name="Cambio_de_">SI</SimpleData>
            <SimpleData name="Titular_se">DALILA MARTINEZ GONZALEZ</SimpleData>
            <SimpleData name="Cédula_Ti">8162427</SimpleData>
            <SimpleData name="Situación">0</SimpleData>
            <SimpleData name="Comunidad">Ind?gena</SimpleData>
            <SimpleData name="Modelo_imp">Modelo 5</SimpleData>
            <SimpleData name="Departamen">CONCEPCION</SimpleData>
            <SimpleData name="Distrito">AZOTEY</SimpleData>
            <SimpleData name="Localidad">COM INDIG VYA PAVE-AZOTEY</SimpleData>
            <SimpleData name="Teléfono">0975362702</SimpleData>
            <SimpleData name="Vivienda_L">-23.35860650000</SimpleData>
            <SimpleData name="Vivienda_1">-56.50390110000</SimpleData>
            <SimpleData name="Superficie">0.70000000000</SimpleData>
            <SimpleData name="Situaci_1">Par?metro</SimpleData>
            <SimpleData name="Plantado">Si</SimpleData>
            <SimpleData name="Parcela_La">-23.35989101000</SimpleData>
            <SimpleData name="Parcela_Lo">-56.50581930000</SimpleData>
            <SimpleData name="Grupo_Impl">G3</SimpleData>
            <SimpleData name="Grupo_de_P">J-P1-XX-XX-XX</SimpleData>
            <SimpleData name="Jornales">0.00000000000</SimpleData>
            <SimpleData name="Monto">0.00000000000</SimpleData>
            <SimpleData name="Estado_del">Activo</SimpleData>
            <SimpleData name="Empresa">Emilio Sol?s Grance</SimpleData>
            <SimpleData name="Lote">J</SimpleData>
            <SimpleData name="Fecha_de_M">-</SimpleData>
            <SimpleData name="F__de_pren">-</SimpleData>
            <SimpleData name="Estado_FAO">Monitorear</SimpleData>
            <SimpleData name="Etapa_de_i">Mantenimiento A?o 1.1</SimpleData>
            <SimpleData name="Fecha_visi">2026/09/16</SimpleData>
            <SimpleData name="Cumple_sup">Si</SimpleData>
            <SimpleData name="Estado_mon">-</SimpleData>
            <SimpleData name="Situaci_12">-</SimpleData>
            <SimpleData name="Observaci">-</SimpleData>
            <SimpleData name="Dias_trans">4.22934027778</SimpleData>
            <SimpleData name="Prioridad">ALTA</SimpleData>
          </SchemaData>
        </ExtendedData>
        <MultiGeometry>
          <Point>
            <coordinates>
              -56.5058192985974,-23.3598910057058,0
            </coordinates>
          </Point>
          <Point>
            <coordinates>
              -56.5042824760768,-23.3594086354578,0
            </coordinates>
          </Point>
        </MultiGeometry>
      </Placemark>
      <Placemark id="Distrito_AZOTEY.4">
        <ExtendedData>
          <SchemaData schemaUrl="#Distrito_AZOTEY.schema">
            <SimpleData name="Cédula">4160605.00000000000</SimpleData>
            <SimpleData name="cedula">4160605</SimpleData>
            <SimpleData name="N_">8135.00000000000</SimpleData>
            <SimpleData name="Nombres_y_">CRISTINA MARTINEZ</SimpleData>
            <SimpleData name="Sexo">Mujer</SimpleData>
            <SimpleData name="Cambio_de_">NO</SimpleData>
            <SimpleData name="Titular_se">NO</SimpleData>
            <SimpleData name="Situación">NO</SimpleData>
            <SimpleData name="Comunidad">Ind?gena</SimpleData>
            <SimpleData name="Modelo_imp">Modelo 1</SimpleData>
            <SimpleData name="Departamen">CONCEPCION</SimpleData>
            <SimpleData name="Distrito">AZOTEY</SimpleData>
            <SimpleData name="Localidad">COM INDIG VYA PAVE-AZOTEY</SimpleData>
            <SimpleData name="Teléfono">0975251997</SimpleData>
            <SimpleData name="Vivienda_L">-23.32679360000</SimpleData>
            <SimpleData name="Vivienda_1">-56.50950510000</SimpleData>
            <SimpleData name="Superficie">0.80000000000</SimpleData>
            <SimpleData name="Situaci_1">Par?metro</SimpleData>
            <SimpleData name="Plantado">Si</SimpleData>
            <SimpleData name="Parcela_La">-23.32756221000</SimpleData>
            <SimpleData name="Parcela_Lo">-56.50673641000</SimpleData>
            <SimpleData name="Grupo_Impl">G3</SimpleData>
            <SimpleData name="Grupo_de_P">J-P1-XX-XX-XX</SimpleData>
            <SimpleData name="Jornales">0.00000000000</SimpleData>
            <SimpleData name="Monto">0.00000000000</SimpleData>
            <SimpleData name="Estado_del">Activo</SimpleData>
            <SimpleData name="Empresa">Emilio Sol?s Grance</SimpleData>
            <SimpleData name="Lote">J</SimpleData>
            <SimpleData name="Fecha_de_M">-</SimpleData>
            <SimpleData name="F__de_pren">-</SimpleData>
            <SimpleData name="Estado_FAO">Monitorear</SimpleData>
            <SimpleData name="Etapa_de_i">Mantenimiento A?o 1.1</SimpleData>
            <SimpleData name="Fecha_visi">2026/09/16</SimpleData>
            <SimpleData name="Cumple_sup">Si</SimpleData>
            <SimpleData name="Estado_mon">-</SimpleData>
            <SimpleData name="Situaci_12">-</SimpleData>
            <SimpleData name="Observaci">-</SimpleData>
            <SimpleData name="Dias_trans">4.51619212963</SimpleData>
            <SimpleData name="Prioridad">ALTA</SimpleData>
          </SchemaData>
        </ExtendedData>
        <Point>
          <coordinates>
            -56.5067364097369,-23.3275622099336,0
          </coordinates>
        </Point>
      </Placemark>
    </Document>
  </Document>
</kml>
